{"type":"FeatureCollection","name":"proto2-depth-collar","crs":{"type":"name","properties":{"name":"urn:ogc:def:crs:OGC:1.3:CRS84"}},"features":[{"type":"Feature","properties":{"role":"invisible_depth_collar"},"geometry":{"type":"MultiPolygon","coordinates":[[[[3.9381929,52.1944383],[4.7552597,52.2016399],[4.7616919,51.7425219],[3.9529394,51.7354153],[3.9381929,52.1944383]],[[4.2464784,51.9302689],[4.2455184,51.930598],[4.2450816,51.9306894],[4.2447408,51.9306435],[4.2433531,51.9295657],[4.2431313,51.9292582],[4.2433673,51.9288293],[4.2444695,51.9279498],[4.2448778,51.927737],[4.2452664,51.9277208],[4.245717,51.9278981],[4.2472741,51.9288465],[4.2475688,51.9291244],[4.2475997,51.9292467],[4.2473016,51.9297485],[4.2464784,51.9302689]],[[4.3879435,51.9370411],[4.388019,51.936836],[4.3883978,51.9365752],[4.3898677,51.9358627],[4.3904499,51.9356369],[4.3912491,51.9355534],[4.3919747,51.9357084],[4.3936598,51.9365033],[4.3943291,51.937042],[4.3951542,51.937503],[4.3961901,51.9377536],[4.3973023,51.9377612],[4.3987369,51.937383],[4.3999601,51.9373064],[4.4011324,51.9369451],[4.402391,51.9360243],[4.4030073,51.935846],[4.4038514,51.9358092],[4.4046796,51.935849],[4.4058407,51.9360444],[4.4068288,51.9369319],[4.4074299,51.9373434],[4.4074981,51.9375584],[4.4072628,51.9379376],[4.4067858,51.9380375],[4.4047427,51.9376249],[4.4023196,51.9373394],[4.4010735,51.9375365],[4.4000651,51.9380304],[4.399485,51.9384139],[4.3984417,51.9386972],[4.396593,51.9382359],[4.3953866,51.9382732],[4.3942955,51.9385934],[4.3934863,51.9391477],[4.3930828,51.9398515],[4.3931466,51.9405971],[4.3938229,51.9414757],[4.3938189,51.942297],[4.3942503,51.9429415],[4.3949348,51.9436026],[4.3948437,51.9438494],[4.3944643,51.9442464],[4.3939466,51.9443692],[4.3933245,51.9442552],[4.3920784,51.9437065],[4.3909582,51.9435664],[4.3899308,51.9436209],[4.3895063,51.9435256],[4.387948,51.9429828],[4.3874937,51.9427062],[4.3872285,51.9418512],[4.3873992,51.941455],[4.3878867,51.9408003],[4.3881983,51.9406132],[4.3889516,51.9398917],[4.3891173,51.9390391],[4.388662,51.9382278],[4.3881653,51.937614],[4.3879435,51.9370411]],[[4.2391299,51.9539382],[4.2377377,51.9536657],[4.237237,51.9534929],[4.2370014,51.9530666],[4.2370013,51.9513708],[4.237223,51.9509552],[4.2375865,51.9508782],[4.2381505,51.9509822],[4.2396199,51.9510348],[4.2400961,51.9511219],[4.2414182,51.9516153],[4.2415332,51.9518294],[4.2409013,51.9529601],[4.2409588,51.9536039],[4.2395221,51.9539491],[4.2391299,51.9539382]],[[4.2408978,51.9428539],[4.241134,51.9426969],[4.2418465,51.9424525],[4.2424966,51.9420267],[4.2454445,51.9395003],[4.2500565,51.9357681],[4.2516807,51.9346499],[4.2523062,51.9340081],[4.2574665,51.9298519],[4.2611599,51.9277513],[4.2643937,51.9266111],[4.26502,51.9266761],[4.2665634,51.9271438],[4.2675558,51.9279696],[4.2693455,51.9286463],[4.2694443,51.9289885],[4.2691945,51.9295152],[4.2685205,51.9302447],[4.2675377,51.9311162],[4.2664485,51.9319158],[4.265744,51.9329535],[4.2654432,51.9336829],[4.2653451,51.934759],[4.2655105,51.9354317],[4.2662435,51.937334],[4.266881,51.9380826],[4.2679794,51.9385877],[4.2695363,51.9387458],[4.2723075,51.9394185],[4.273406,51.9399504],[4.2745554,51.9402988],[4.2758346,51.9403293],[4.2770241,51.9400368],[4.2791655,51.9388706],[4.2796268,51.9382172],[4.2796632,51.9375945],[4.2798187,51.9372157],[4.2802483,51.9369029],[4.2810305,51.9367856],[4.2821149,51.9364573],[4.2828214,51.9359609],[4.2841811,51.9344502],[4.284784,51.9333732],[4.2847029,51.9326721],[4.2842172,51.9320367],[4.2833924,51.9315528],[4.2792453,51.9298934],[4.2788869,51.9296797],[4.2782845,51.929033],[4.277601,51.9286646],[4.2758316,51.9279499],[4.2755155,51.9277689],[4.2746466,51.9268983],[4.2740637,51.9266402],[4.2737578,51.9255177],[4.2738037,51.9252677],[4.2748783,51.9244937],[4.2757205,51.9242519],[4.2766752,51.9238665],[4.2773388,51.9232931],[4.2776207,51.92261],[4.2773776,51.9215672],[4.2776023,51.9212788],[4.277908,51.9204255],[4.2777817,51.9197753],[4.2783654,51.9193014],[4.2786826,51.9191795],[4.2805214,51.9192182],[4.282073,51.9187676],[4.2824289,51.918766],[4.2828327,51.9189187],[4.2872708,51.9214642],[4.2885529,51.9219091],[4.2900222,51.921937],[4.2941139,51.9213751],[4.295655,51.9213464],[4.2967731,51.9211968],[4.2988013,51.9207512],[4.298834,51.9208122],[4.3103772,51.91933],[4.3109301,51.9194583],[4.3111555,51.9197896],[4.3111813,51.9212274],[4.3108571,51.9221289],[4.3110819,51.9228224],[4.311962,51.923703],[4.3122729,51.9246983],[4.3122248,51.9252924],[4.3115822,51.9258902],[4.3093035,51.9269949],[4.3087929,51.9275921],[4.3085416,51.9284873],[4.3079924,51.9318454],[4.3076823,51.9329535],[4.3072513,51.933812],[4.3052468,51.9344966],[4.3048672,51.9344994],[4.3003624,51.9322378],[4.2989123,51.9317391],[4.2972676,51.9313961],[4.295674,51.931276],[4.294502,51.9313565],[4.2934641,51.9317026],[4.2927379,51.9321728],[4.2919973,51.9324439],[4.2910693,51.9329668],[4.2905545,51.9336749],[4.2905381,51.9344511],[4.2910227,51.9351672],[4.2919285,51.935705],[4.2994354,51.9386041],[4.3007026,51.9393314],[4.3086577,51.9423446],[4.3107867,51.9428381],[4.3146755,51.9443275],[4.3149652,51.9445031],[4.3157807,51.9447819],[4.3157392,51.9448287],[4.3165717,51.9451008],[4.3177106,51.9456713],[4.3188702,51.9459661],[4.3201238,51.945952],[4.3212652,51.9456313],[4.3222796,51.9448745],[4.3231601,51.9426276],[4.3238326,51.9419168],[4.324951,51.9417806],[4.3260549,51.9414745],[4.326884,51.94093],[4.3272207,51.9405966],[4.3290562,51.9394258],[4.3298241,51.9391366],[4.3316343,51.9386587],[4.3321989,51.9385749],[4.3338265,51.9388325],[4.334564,51.9390881],[4.3350395,51.9394315],[4.3369817,51.9402228],[4.3395908,51.9408324],[4.3407082,51.9410115],[4.3417938,51.9410709],[4.3440206,51.9415036],[4.3445714,51.9417001],[4.3453013,51.9421348],[4.3464133,51.9424072],[4.3486807,51.9424192],[4.3520002,51.9430943],[4.3526783,51.9434004],[4.3536762,51.9437073],[4.3547852,51.9437755],[4.3562441,51.9435343],[4.3566521,51.9435274],[4.3570567,51.9436598],[4.357306,51.9439913],[4.3571349,51.944552],[4.3565368,51.9457108],[4.3566756,51.9464243],[4.3572313,51.9470556],[4.3581253,51.9475153],[4.3592309,51.9477382],[4.3619483,51.9476587],[4.3630938,51.947282],[4.363981,51.946528],[4.3642636,51.9463762],[4.3645247,51.9463385],[4.3647556,51.9463715],[4.3659752,51.9469737],[4.3670901,51.9471943],[4.3688076,51.9470517],[4.3696867,51.9472012],[4.3701375,51.9474824],[4.3706619,51.948032],[4.3718129,51.948505],[4.3730012,51.9486816],[4.3744389,51.9492218],[4.3755202,51.9493231],[4.3765908,51.9491854],[4.3777795,51.9487232],[4.3783348,51.9487859],[4.3811211,51.9501113],[4.3815782,51.9504526],[4.3815815,51.9506336],[4.3803382,51.9518742],[4.3799098,51.9525427],[4.3799116,51.9532616],[4.3803434,51.9539291],[4.3811439,51.9544509],[4.3822,51.9547526],[4.3833618,51.9547919],[4.3841571,51.9546268],[4.3846107,51.9546095],[4.3865905,51.9552704],[4.3878244,51.9555025],[4.3891622,51.9553908],[4.3901269,51.9550531],[4.3908368,51.9545268],[4.3912005,51.9538796],[4.391171,51.9531948],[4.3907524,51.9525604],[4.3903688,51.9521885],[4.3905313,51.9514133],[4.3903424,51.9507564],[4.3897995,51.9501798],[4.3886381,51.9495843],[4.3885167,51.9493899],[4.3886994,51.9489023],[4.38892,51.9486534],[4.3893965,51.9485451],[4.391535,51.949232],[4.3927349,51.9499224],[4.3940496,51.9505166],[4.3943058,51.9508106],[4.3944111,51.9512853],[4.3947685,51.9519502],[4.3959854,51.9528416],[4.3964392,51.9537409],[4.3968875,51.9542896],[4.3973102,51.9552776],[4.3972793,51.955693],[4.3967662,51.956056],[4.3961655,51.9567021],[4.3960105,51.957441],[4.3962704,51.9581074],[4.3968691,51.9586583],[4.4022468,51.9609032],[4.4032518,51.9612046],[4.4043645,51.9612656],[4.4052934,51.9611607],[4.4068399,51.9611837],[4.4079651,51.9608747],[4.408655,51.9604732],[4.4093539,51.9597551],[4.4096766,51.958844],[4.4105103,51.9584578],[4.4111242,51.9579851],[4.4119768,51.9570695],[4.4140633,51.9554636],[4.4154092,51.9548492],[4.4160618,51.9543385],[4.4163991,51.953722],[4.416291,51.9517115],[4.4164217,51.9515151],[4.4168619,51.9513017],[4.4175174,51.9514195],[4.4201375,51.9524997],[4.420533,51.9527527],[4.4210109,51.9532812],[4.4217983,51.9537084],[4.424527,51.9542846],[4.4265097,51.9551035],[4.4267248,51.95523],[4.4270554,51.9558544],[4.4277381,51.9564572],[4.4287623,51.9568876],[4.4298717,51.9570355],[4.4309928,51.956926],[4.4315895,51.956795],[4.4322172,51.9569151],[4.4342453,51.9577118],[4.4362127,51.9585934],[4.4365698,51.9588162],[4.4370739,51.9593569],[4.437771,51.9597446],[4.4444014,51.9624596],[4.4454241,51.9626146],[4.4466904,51.9625108],[4.4471497,51.9626188],[4.4473701,51.9628483],[4.4473505,51.9631328],[4.4469853,51.9639218],[4.4471534,51.9646744],[4.4490894,51.9665153],[4.4513223,51.9675856],[4.452187,51.9679222],[4.4533182,51.96812],[4.4539824,51.9680761],[4.4546219,51.9681581],[4.4547759,51.9682699],[4.455008,51.9688563],[4.4555747,51.9694732],[4.4564669,51.9699198],[4.4570914,51.9700423],[4.4579077,51.9703245],[4.4587052,51.9707964],[4.4598576,51.9713045],[4.4610324,51.971546],[4.4622662,51.9714837],[4.4633615,51.9711274],[4.4638552,51.9708872],[4.4644428,51.9707433],[4.4659176,51.9708653],[4.4663233,51.9709572],[4.4665415,51.9711184],[4.466619,51.9713964],[4.4665126,51.9717117],[4.4649301,51.9727478],[4.4645153,51.9733653],[4.4644706,51.9740332],[4.4648011,51.9746697],[4.4657117,51.9754278],[4.4664841,51.9757888],[4.4666751,51.9764106],[4.4666746,51.9773931],[4.4664947,51.9778892],[4.4659653,51.9782512],[4.4651639,51.978464],[4.4648387,51.978379],[4.4645939,51.9782157],[4.463692,51.9774138],[4.4632582,51.9768031],[4.4625273,51.976174],[4.4612614,51.9756444],[4.4600934,51.9755233],[4.4582914,51.9757633],[4.4573257,51.9761731],[4.4566762,51.9767755],[4.456277,51.9774637],[4.45555,51.9781023],[4.4551988,51.9781779],[4.454762,51.9781075],[4.4539135,51.9777731],[4.4534573,51.9774104],[4.4535124,51.9770704],[4.4547005,51.9752263],[4.4546128,51.9744807],[4.4540682,51.9738128],[4.4524643,51.9730378],[4.451982,51.9726112],[4.4511351,51.9720746],[4.4500193,51.9717805],[4.4473143,51.9718024],[4.4467988,51.9718822],[4.4456645,51.9722213],[4.4448434,51.9728117],[4.4442668,51.9735753],[4.4433044,51.9741379],[4.4391909,51.9733981],[4.4387427,51.9732584],[4.4378917,51.9722406],[4.4369701,51.9717816],[4.4358368,51.9715702],[4.4346579,51.9716373],[4.4332696,51.9720534],[4.4324862,51.9726638],[4.4317774,51.9745815],[4.4318922,51.9752627],[4.4323889,51.975875],[4.4333272,51.9763885],[4.4339806,51.9772315],[4.4348961,51.9777402],[4.4396262,51.9786731],[4.4407663,51.9788055],[4.4419053,51.9786691],[4.4428827,51.9782831],[4.4439123,51.9774632],[4.4450233,51.9777836],[4.4455162,51.9781047],[4.4457515,51.9789434],[4.4463298,51.9795105],[4.4471898,51.9799193],[4.4482437,51.9801612],[4.4484211,51.9803506],[4.4484087,51.9806408],[4.4481081,51.9813225],[4.4473884,51.9818362],[4.4469014,51.9825946],[4.4469713,51.9834092],[4.4472256,51.9839297],[4.4477302,51.9845334],[4.448545,51.9849899],[4.4495673,51.9852414],[4.4503679,51.985252],[4.4510307,51.9853773],[4.4534079,51.986239],[4.4559339,51.9864375],[4.4564904,51.9865312],[4.4567329,51.9867063],[4.4566987,51.9869872],[4.4557883,51.9884692],[4.4549549,51.9895561],[4.4538875,51.9902728],[4.4531838,51.9916328],[4.4517125,51.9922043],[4.4507598,51.992276],[4.4496245,51.9925049],[4.4487143,51.9929821],[4.4481646,51.9936367],[4.4480575,51.9943709],[4.4481347,51.9949917],[4.4486488,51.9957622],[4.4496454,51.9963242],[4.4500419,51.9964645],[4.4506376,51.9972592],[4.4514036,51.9977414],[4.4523936,51.9980289],[4.453553,51.9980817],[4.4540361,51.9981752],[4.4545737,51.9984222],[4.4555463,51.9990979],[4.4567051,51.9994716],[4.457501,51.9994989],[4.4582742,51.9996333],[4.4598437,52.0001962],[4.4600212,52.0004128],[4.4602735,52.0013558],[4.4621566,52.0030357],[4.4615144,52.0043605],[4.461696,52.0051576],[4.4623937,52.0058378],[4.4634835,52.00628],[4.4647718,52.006406],[4.4661121,52.0062128],[4.466531,52.0064047],[4.466651,52.0070704],[4.4666169,52.0093061],[4.4664782,52.0102459],[4.4664969,52.0109844],[4.4666195,52.0113386],[4.4665248,52.0119682],[4.4641113,52.0134934],[4.4636859,52.0143742],[4.4633257,52.0147417],[4.4629408,52.0149375],[4.4622179,52.0150744],[4.4612125,52.015399],[4.4604644,52.0159254],[4.4600738,52.0165827],[4.4600934,52.0172827],[4.4605205,52.0179313],[4.4618424,52.0187716],[4.461882,52.0190095],[4.4616222,52.0191871],[4.4611033,52.019255],[4.4569111,52.0192035],[4.4545781,52.019255],[4.4533561,52.019195],[4.4522162,52.0192551],[4.4517147,52.0191919],[4.4509099,52.0186947],[4.4500028,52.0183872],[4.4488051,52.0182451],[4.4480905,52.0180394],[4.4479009,52.0178959],[4.4479326,52.0174525],[4.4481048,52.0171766],[4.4484308,52.0160007],[4.4491811,52.014976],[4.4494653,52.014734],[4.45064,52.0144282],[4.4515184,52.0139318],[4.452028,52.0132675],[4.4522066,52.012833],[4.4533686,52.0116169],[4.4548442,52.0110938],[4.4556437,52.0106315],[4.4561322,52.0100261],[4.4562481,52.0093538],[4.4559771,52.0086986],[4.4551388,52.0077703],[4.454031,52.0072911],[4.4526978,52.0071494],[4.4521436,52.007244],[4.4496924,52.0073871],[4.4491034,52.0071701],[4.4489664,52.0068587],[4.4490437,52.0065019],[4.4494668,52.0060622],[4.449998,52.0059705],[4.4525474,52.0067343],[4.4536677,52.0067624],[4.4547307,52.0065421],[4.456123,52.0059511],[4.4566523,52.005468],[4.4572363,52.0048498],[4.4577519,52.0041048],[4.4579146,52.0035495],[4.4578187,52.0027257],[4.4571681,52.002004],[4.4564714,52.0016035],[4.454961,52.0009623],[4.4533853,51.999911],[4.4530582,51.9995035],[4.4522262,51.9990312],[4.4511749,51.9987748],[4.4500446,51.9987686],[4.4492543,51.9989264],[4.4485535,51.9991313],[4.4460388,52.0001584],[4.4423855,51.9994506],[4.4412145,51.9993825],[4.4400869,51.999589],[4.4391658,52.0000403],[4.4385839,52.0006713],[4.43811,52.0014011],[4.4362174,52.0028864],[4.4352381,52.0033977],[4.4342703,52.0040359],[4.4338474,52.0042037],[4.4322655,52.0045049],[4.4314245,52.0049627],[4.431172,52.0052593],[4.430491,52.0057424],[4.4298459,52.0064806],[4.4297756,52.0073182],[4.4303333,52.0082113],[4.4298429,52.009182],[4.4297942,52.0099001],[4.4302696,52.0106621],[4.4314728,52.0113819],[4.4318125,52.0120134],[4.431711,52.0131901],[4.4313271,52.0136751],[4.430993,52.0137736],[4.4288503,52.0135524],[4.4275827,52.0137988],[4.4265994,52.0143504],[4.4259004,52.0152503],[4.4240779,52.0156721],[4.4235081,52.0160088],[4.4236361,52.0158075],[4.4235977,52.0150399],[4.4234571,52.0146749],[4.4235261,52.0144047],[4.4242883,52.0137452],[4.4247042,52.0130281],[4.4245654,52.0121101],[4.4240607,52.0114618],[4.4232032,52.0109747],[4.4215867,52.0106598],[4.4201904,52.0107046],[4.4189686,52.011124],[4.4175802,52.0124174],[4.4157265,52.01281],[4.4154591,52.0127876],[4.4147914,52.0125088],[4.4146327,52.0122853],[4.4146337,52.0120196],[4.4165569,52.0088136],[4.4166159,52.0084605],[4.4172688,52.0070675],[4.4170684,52.0062775],[4.4163616,52.0056075],[4.4152723,52.0051746],[4.4125259,52.004582],[4.4113417,52.0046254],[4.4102709,52.0049407],[4.4094711,52.0054814],[4.4090596,52.0061681],[4.409097,52.0068999],[4.4099383,52.0079646],[4.4095175,52.0088134],[4.4090791,52.0091498],[4.4076996,52.009198],[4.4065774,52.0095002],[4.4054034,52.0101376],[4.4048717,52.0103118],[4.4033444,52.0100171],[4.4028135,52.0098129],[4.4009627,52.0093317],[4.4008011,52.0091504],[4.4006586,52.0086716],[4.4007988,52.0083956],[4.4012799,52.0080384],[4.4033048,52.0081836],[4.4044701,52.0080123],[4.4054428,52.0075808],[4.406077,52.0069537],[4.4062919,52.0066048],[4.4064842,52.0057763],[4.4060843,52.0049767],[4.4051689,52.0043594],[4.4033972,52.0038882],[4.4014666,52.0037182],[4.4009104,52.0036062],[4.3999127,52.0032912],[4.3997495,52.0030773],[4.3998676,52.0027338],[4.4008789,52.0013172],[4.4014065,52.0003448],[4.401972,51.9998206],[4.402432,51.9991325],[4.4027421,51.9983092],[4.40458,51.9956316],[4.4046856,51.9953372],[4.4046269,51.9945867],[4.4041041,51.9939083],[4.4031976,51.9934069],[4.4022595,51.9931866],[4.3936002,51.9917891],[4.3923398,51.9917375],[4.3911512,51.9920011],[4.3902324,51.9925361],[4.3897362,51.9932532],[4.389455,51.9938897],[4.3888369,51.9946004],[4.3885003,51.994685],[4.387828,51.9946074],[4.3873755,51.9944164],[4.387217,51.9942222],[4.3872483,51.9939816],[4.3878259,51.9929308],[4.3881491,51.9928165],[4.389407,51.9927244],[4.3904604,51.9923508],[4.3911996,51.9917555],[4.3915106,51.9910305],[4.3913452,51.9902875],[4.3900549,51.9889992],[4.3891138,51.9885487],[4.3860843,51.9880331],[4.3855941,51.9878629],[4.3855056,51.9876583],[4.3856117,51.9873148],[4.3866195,51.9863885],[4.3868622,51.9855955],[4.3865528,51.9848114],[4.3857464,51.9841761],[4.3845872,51.9838033],[4.382441,51.9834458],[4.3811814,51.9834061],[4.3800006,51.9836802],[4.3790953,51.9842224],[4.3786158,51.9849429],[4.3784445,51.9855093],[4.377858,51.9865312],[4.377403,51.9868775],[4.3770695,51.9869521],[4.3766968,51.9869043],[4.3763338,51.9867531],[4.3761981,51.9865326],[4.3763332,51.9862072],[4.3775268,51.9844492],[4.3775647,51.9837203],[4.3771574,51.9830357],[4.3763643,51.9824954],[4.3753009,51.9821779],[4.3731804,51.9818324],[4.3726943,51.9816795],[4.3721439,51.9812059],[4.3721633,51.9810365],[4.3724814,51.9806887],[4.3729218,51.9803881],[4.3733235,51.9796432],[4.3731563,51.9785226],[4.3741641,51.9776379],[4.3743928,51.9768404],[4.3740657,51.9760561],[4.3732417,51.975426],[4.372069,51.9750634],[4.3705978,51.9748222],[4.3700259,51.9745973],[4.3701154,51.9736107],[4.369783,51.9728395],[4.3689693,51.9722194],[4.3678166,51.9718589],[4.3628887,51.9710399],[4.3616482,51.9709919],[4.3604773,51.9712493],[4.359565,51.9717707],[4.3589427,51.9726709],[4.3582621,51.9741265],[4.357947,51.9752817],[4.3578629,51.9752723],[4.3573117,51.9765403],[4.3573708,51.9774601],[4.3579716,51.9781606],[4.358981,51.9786501],[4.3602255,51.9788444],[4.3612267,51.9788683],[4.362287,51.9790624],[4.3630589,51.9791154],[4.3637188,51.9793022],[4.3646055,51.9799587],[4.3657477,51.9804994],[4.3657813,51.9807806],[4.3656194,51.9809816],[4.3652998,51.9810959],[4.3648045,51.9810777],[4.3580107,51.9799528],[4.3567008,51.9800957],[4.3554588,51.9806658],[4.3547954,51.9807781],[4.3537176,51.9806121],[4.3532798,51.9804765],[4.3523549,51.9796559],[4.3506841,51.9786947],[4.3497159,51.9783372],[4.3497601,51.9782816],[4.3483551,51.9778007],[4.3471944,51.977609],[4.3460029,51.9777049],[4.3451285,51.9778711],[4.3444352,51.9777822],[4.3429949,51.9777585],[4.3418223,51.9780704],[4.3411511,51.9781168],[4.3374079,51.9775138],[4.3369943,51.9773544],[4.3368557,51.977123],[4.3373576,51.9761798],[4.3373225,51.9754775],[4.3368788,51.9748307],[4.3360863,51.9743266],[4.3350524,51.9740336],[4.3262866,51.9725989],[4.3244951,51.9720273],[4.3239082,51.9719334],[4.3225358,51.9719071],[4.3212802,51.9722504],[4.320266,51.9730408],[4.3200243,51.9731675],[4.3195283,51.9732671],[4.3190418,51.9732465],[4.3166742,51.97286],[4.3158635,51.9725852],[4.3152692,51.9720843],[4.3144374,51.9716029],[4.3133798,51.9713403],[4.3122402,51.9713321],[4.311173,51.9715795],[4.3103234,51.9720489],[4.3098069,51.9726765],[4.3094614,51.9736646],[4.3083798,51.9747888],[4.3082811,51.9755789],[4.3087103,51.9763258],[4.3095366,51.9770381],[4.311137,51.9778192],[4.3118262,51.9783186],[4.3139302,51.9788941],[4.3146774,51.9792273],[4.3177415,51.9814678],[4.3179347,51.9817828],[4.3179089,51.9822178],[4.318077,51.9829123],[4.3186402,51.9835223],[4.3194393,51.9839237],[4.319798,51.984246],[4.3200527,51.984649],[4.3201007,51.9850947],[4.3199354,51.9857199],[4.3201362,51.9863901],[4.3207053,51.9869742],[4.3217313,51.9877127],[4.3224451,51.9881018],[4.3227406,51.9883865],[4.3227786,51.9888021],[4.3225852,51.9890816],[4.3222307,51.9901081],[4.3202497,51.9924026],[4.3193433,51.9930348],[4.317773,51.9935054],[4.31695,51.9938416],[4.3163404,51.9943207],[4.3151188,51.9957834],[4.3147906,51.9958769],[4.3140222,51.9958129],[4.3140101,51.9958681],[4.3120532,51.9958259],[4.3070777,51.9947202],[4.3029372,51.9940326],[4.2966815,51.992725],[4.2955376,51.9926231],[4.2944128,51.9927874],[4.2934643,51.993195],[4.2921337,51.9944443],[4.2916002,51.9944652],[4.2899346,51.9937853],[4.2892905,51.9932386],[4.2892004,51.9922937],[4.2888933,51.9914205],[4.2888998,51.990935],[4.2886345,51.9899834],[4.2879486,51.9893221],[4.2870899,51.9889373],[4.2861965,51.9887307],[4.2853593,51.9882559],[4.2838533,51.9876927],[4.2827027,51.9866607],[4.2825398,51.9862209],[4.2829882,51.9855489],[4.2830235,51.9847477],[4.2825234,51.9840081],[4.2815759,51.9834603],[4.2807242,51.9832803],[4.2801517,51.9830738],[4.2796838,51.9827659],[4.2794988,51.9823286],[4.2798599,51.9813716],[4.2796528,51.9806971],[4.2790731,51.9801114],[4.2775942,51.9794491],[4.2771135,51.9791268],[4.2769526,51.9787404],[4.2775931,51.9778166],[4.2785458,51.9781115],[4.279276,51.9784549],[4.2796582,51.978777],[4.2793208,51.9799278],[4.2795861,51.9806181],[4.2802409,51.9812009],[4.2816831,51.981814],[4.2825174,51.9824441],[4.2834904,51.9828922],[4.2846679,51.9830745],[4.2858683,51.982963],[4.2869067,51.9825749],[4.287301,51.9823518],[4.2878358,51.9822288],[4.288842,51.9818496],[4.2895452,51.9812654],[4.2898115,51.9807844],[4.2906283,51.980277],[4.292943,51.9800312],[4.2940206,51.9795098],[4.2947766,51.9787048],[4.2948894,51.9779643],[4.2945355,51.9772533],[4.2937687,51.9766797],[4.289979,51.9749736],[4.2882993,51.9741179],[4.2878913,51.9738052],[4.2882974,51.9726686],[4.2879615,51.9718446],[4.2870799,51.9711921],[4.2842545,51.9698326],[4.283319,51.9694625],[4.2822321,51.9693206],[4.2794501,51.9694713],[4.2784632,51.9698007],[4.2777317,51.9703259],[4.2773515,51.9709777],[4.2773729,51.9716705],[4.2777931,51.9723129],[4.2788088,51.9730154],[4.2788559,51.9732471],[4.2786193,51.9735277],[4.2762602,51.9752318],[4.2760204,51.9757372],[4.274896,51.9755109],[4.2736141,51.9755942],[4.2728664,51.9757446],[4.2723539,51.9756302],[4.2720829,51.9753656],[4.272296,51.9749843],[4.2756156,51.9721185],[4.276582,51.9716312],[4.2773074,51.971035],[4.2776078,51.9703125],[4.2774374,51.9695742],[4.2762034,51.9684471],[4.2762901,51.9676637],[4.2760066,51.9669269],[4.2760995,51.9659314],[4.2757573,51.9652589],[4.2750438,51.9647089],[4.2696412,51.9627683],[4.2686057,51.9620824],[4.2665546,51.9611436],[4.2655793,51.9608264],[4.2656197,51.9607724],[4.2647394,51.9604058],[4.2640773,51.9600106],[4.2630851,51.9596229],[4.2619304,51.9594916],[4.2599956,51.9594468],[4.258143,51.9590342],[4.2579585,51.9587384],[4.2585631,51.9576728],[4.2584148,51.9568514],[4.2577187,51.9561457],[4.2561094,51.9555514],[4.2559133,51.9553875],[4.2553367,51.9544141],[4.254731,51.953928],[4.2548776,51.953511],[4.2565423,51.9517285],[4.2569294,51.9510241],[4.2568515,51.9502817],[4.2563206,51.949614],[4.2554173,51.9491223],[4.2543007,51.9486675],[4.2538113,51.9473829],[4.2530361,51.946793],[4.2516378,51.9463446],[4.250756,51.9461734],[4.249698,51.9461884],[4.2487102,51.9464231],[4.2478837,51.9468685],[4.247528,51.9469348],[4.2455265,51.9463667],[4.2443216,51.9462938],[4.2436742,51.9463337],[4.2432342,51.9462471],[4.242813,51.9459658],[4.2427677,51.945483],[4.2420679,51.9440026],[4.2408519,51.9431714],[4.2408978,51.9428539]],[[4.2378933,51.9730861],[4.2374339,51.9730316],[4.2371604,51.9727936],[4.2371784,51.9725493],[4.2376135,51.9717639],[4.2376064,51.971381],[4.2377479,51.9710081],[4.2385033,51.9702215],[4.2388597,51.9701531],[4.2392896,51.9702331],[4.2401544,51.9705801],[4.2415652,51.970894],[4.2428085,51.9709806],[4.2440054,51.9707557],[4.2449602,51.9702562],[4.2455165,51.9695641],[4.245583,51.9687924],[4.2453321,51.9680199],[4.2449156,51.9673681],[4.2438164,51.9667007],[4.2436578,51.9664234],[4.2437538,51.9660713],[4.2440647,51.9656036],[4.2446265,51.9648109],[4.2450032,51.9644611],[4.2453461,51.9643729],[4.2461726,51.9645199],[4.246584,51.9646994],[4.2467173,51.9649131],[4.2463536,51.9659956],[4.2466457,51.9667844],[4.2474404,51.9674277],[4.24812,51.9678465],[4.2478602,51.9690861],[4.2483905,51.9699819],[4.2482711,51.9702924],[4.2479287,51.9706507],[4.2475995,51.9708751],[4.2472457,51.9709326],[4.2458496,51.9706847],[4.2446379,51.9707468],[4.2435586,51.9710924],[4.2427784,51.9716684],[4.2419063,51.9727246],[4.2412641,51.9730336],[4.2408168,51.9730869],[4.2390869,51.9730051],[4.2378933,51.9730861]],[[4.3781532,52.0165458],[4.3795381,52.0152005],[4.380287,52.0150015],[4.3812354,52.0145924],[4.3815906,52.0143676],[4.3824675,52.0134355],[4.3830149,52.013243],[4.3834879,52.0133331],[4.3896359,52.0160834],[4.3907361,52.0163824],[4.3919379,52.0164002],[4.3930599,52.016134],[4.3939332,52.0156243],[4.3944257,52.0149477],[4.3944634,52.0142064],[4.3940406,52.013512],[4.3932197,52.01275],[4.3933058,52.0124428],[4.3935607,52.0122072],[4.393901,52.0121188],[4.3947628,52.0122419],[4.3954755,52.0124427],[4.3964755,52.0129056],[4.3962053,52.0141244],[4.3965394,52.0148988],[4.3973591,52.0155205],[4.3985463,52.0159244],[4.3997421,52.0159917],[4.4010917,52.0157058],[4.401759,52.0157822],[4.4024328,52.0160705],[4.4033268,52.0169102],[4.4040867,52.0172462],[4.4050797,52.0175574],[4.4054767,52.0177511],[4.4055896,52.0179716],[4.4048808,52.018924],[4.404594,52.0191475],[4.4039871,52.019255],[4.4012204,52.0191773],[4.4005612,52.0192542],[4.3947077,52.0192551],[4.3934086,52.0190267],[4.3921166,52.0189195],[4.3908307,52.0186346],[4.3897008,52.0186628],[4.3886627,52.0189395],[4.3880449,52.0192004],[4.387555,52.0192551],[4.3844596,52.0192551],[4.3844596,52.019301],[4.3830942,52.019255],[4.3820923,52.0190702],[4.3808305,52.0182142],[4.3784212,52.0172643],[4.3780635,52.0170534],[4.3779809,52.0168319],[4.3781532,52.0165458]],[[4.4223074,52.0170688],[4.4227981,52.016762],[4.4226998,52.0174645],[4.4227737,52.0179052],[4.4225749,52.0186772],[4.4223378,52.0191334],[4.4216977,52.019255],[4.4199111,52.019235],[4.418259,52.0189834],[4.4179529,52.0187996],[4.4178816,52.0186673],[4.4179875,52.0182728],[4.4182985,52.0180367],[4.4203492,52.0177195],[4.4212875,52.0173255],[4.4223074,52.0170688]]],[[[4.4263449,52.0048319],[4.4252773,52.004736],[4.42405,52.0047638],[4.422899,52.0049595],[4.4219537,52.0054096],[4.4213547,52.006047],[4.4211913,52.0067769],[4.4214878,52.0074907],[4.4221999,52.0080821],[4.423222,52.008463],[4.4247281,52.0088023],[4.4260833,52.0089165],[4.4273857,52.0086591],[4.4283813,52.0080803],[4.4289723,52.0073189],[4.4290299,52.0066355],[4.4286935,52.0059834],[4.4280064,52.0054463],[4.4263449,52.0048319]]]]}}]}