{"type":"FeatureCollection","name":"proto2-surface-rim-envelope","crs":{"type":"name","properties":{"name":"urn:ogc:def:crs:OGC:1.3:CRS84"}},"features":[{"type":"Feature","properties":{"role":"surface_visible_outer_rim","surface_margin_m":50.0,"part_index":0},"geometry":{"type":"Polygon","coordinates":[[[4.2430137,51.9466754],[4.2434537,51.9467619],[4.2437463,51.9467808],[4.2443224,51.9467454],[4.2453341,51.9468066],[4.2472245,51.9473432],[4.2474781,51.9473831],[4.247738,51.9473651],[4.2480938,51.9472987],[4.2483617,51.9472071],[4.2490913,51.946814],[4.249841,51.9466359],[4.2506526,51.9466243],[4.2513591,51.9467616],[4.2525669,51.9471488],[4.2531417,51.9475862],[4.2535927,51.9487704],[4.2537045,51.9489248],[4.2539005,51.9490427],[4.2549746,51.9494803],[4.2557316,51.9498923],[4.2561352,51.9503997],[4.2561943,51.9509641],[4.2558767,51.9515422],[4.2542477,51.9532864],[4.2541669,51.9534155],[4.2540202,51.9538325],[4.2540213,51.9540265],[4.2541546,51.9542021],[4.2546921,51.9546335],[4.2552303,51.955542],[4.2553284,51.9556546],[4.2555245,51.9558185],[4.2557362,51.9559371],[4.2571911,51.9564745],[4.2577098,51.9570003],[4.2578218,51.9576209],[4.257272,51.9585898],[4.2572311,51.9587453],[4.2572798,51.9589],[4.2574642,51.9591958],[4.2576342,51.9593555],[4.2578964,51.9594569],[4.259749,51.9598695],[4.2599683,51.9598959],[4.2618505,51.9599394],[4.2628151,51.9600492],[4.2636255,51.9603658],[4.264234,51.960729],[4.2643327,51.9607785],[4.26495,51.9610355],[4.2650261,51.9611181],[4.2652404,51.9612241],[4.2661663,51.9615251],[4.2681191,51.962419],[4.2691091,51.9630748],[4.2692755,51.9631567],[4.2745608,51.9650553],[4.2751043,51.9654742],[4.2753656,51.9659876],[4.2752802,51.9669011],[4.2752988,51.9670308],[4.2755567,51.9677012],[4.2754776,51.9684165],[4.275501,51.9685641],[4.2756007,51.9686989],[4.2767407,51.9697401],[4.2768671,51.9702874],[4.2766388,51.9708366],[4.2760535,51.9713177],[4.2751555,51.9717704],[4.2750238,51.971857],[4.2717041,51.9747227],[4.2716081,51.9748377],[4.271395,51.9752191],[4.2713601,51.9754176],[4.2714679,51.9756058],[4.2717389,51.9758704],[4.2718981,51.9759806],[4.2721067,51.9760529],[4.2726192,51.9761672],[4.2728548,51.9761939],[4.2730917,51.9761719],[4.2737666,51.9760362],[4.274818,51.9759679],[4.275795,51.9761645],[4.2760824,51.976185],[4.2763599,51.9761346],[4.276584,51.9760215],[4.2767187,51.9758635],[4.2769147,51.9754505],[4.2791723,51.9738197],[4.2792646,51.9737353],[4.2795012,51.9734547],[4.2795721,51.9733265],[4.2795779,51.9731912],[4.2795308,51.9729595],[4.2794711,51.9728294],[4.2793515,51.9727161],[4.2784202,51.972072],[4.2780978,51.971579],[4.2780816,51.971052],[4.2783708,51.9705562],[4.2789273,51.9701566],[4.2796636,51.9699109],[4.2821877,51.9697742],[4.2830385,51.9698852],[4.2838339,51.9701999],[4.2865713,51.971517],[4.2872965,51.9720537],[4.2875499,51.9726754],[4.2871808,51.9737083],[4.2871829,51.9739079],[4.2873246,51.9740872],[4.2877326,51.9743999],[4.2878363,51.9744646],[4.2895159,51.9753203],[4.2895503,51.9753367],[4.2932659,51.9770095],[4.2938823,51.9774706],[4.2941513,51.978011],[4.294067,51.9785646],[4.2934613,51.9792094],[4.2926387,51.9796075],[4.290505,51.9798342],[4.2902927,51.9798783],[4.2901122,51.9799602],[4.2892954,51.9804676],[4.2891229,51.980639],[4.2888932,51.9810537],[4.2883422,51.9815114],[4.2875164,51.9818227],[4.287047,51.9819306],[4.2868094,51.9820204],[4.2864683,51.9822135],[4.285616,51.982532],[4.2847036,51.9826167],[4.2838087,51.9824782],[4.2830242,51.9821169],[4.2822464,51.9815296],[4.2820957,51.9814439],[4.280763,51.9808772],[4.2802625,51.9804317],[4.280064,51.9799155],[4.2803742,51.978857],[4.2803672,51.978676],[4.2802452,51.9785114],[4.2798631,51.9781894],[4.2797169,51.9780974],[4.2789866,51.977754],[4.2788718,51.9777097],[4.2779192,51.9774148],[4.2776345,51.9773679],[4.277343,51.9773946],[4.2770926,51.9774904],[4.2769241,51.9776397],[4.2762836,51.9785634],[4.276227,51.978706],[4.2762478,51.9788523],[4.2764087,51.9792387],[4.2765782,51.9794312],[4.2770588,51.9797535],[4.277167,51.9798129],[4.278528,51.9804224],[4.2789625,51.9808615],[4.2791163,51.9813621],[4.2787901,51.9822266],[4.2787947,51.9824421],[4.2789797,51.9828795],[4.279153,51.9830735],[4.2796209,51.9833813],[4.2797846,51.9834618],[4.2803571,51.9836683],[4.2804885,51.9837055],[4.2811925,51.9838543],[4.2819119,51.9842702],[4.2822916,51.9848319],[4.2822642,51.9854541],[4.2818668,51.9860498],[4.2818144,51.9861837],[4.2818302,51.9863212],[4.2819931,51.9867609],[4.2821031,51.9869155],[4.2832538,51.9879475],[4.2834763,51.9880771],[4.2849202,51.9886171],[4.2857041,51.9890616],[4.2859411,51.9891515],[4.2867422,51.9893368],[4.2874098,51.9896359],[4.2879421,51.9901492],[4.2881713,51.9909715],[4.2881654,51.9914168],[4.2881819,51.9915159],[4.288477,51.992355],[4.2885639,51.993265],[4.2887018,51.993503],[4.2893458,51.9940497],[4.289533,51.9941602],[4.2911986,51.9948401],[4.2914128,51.9948994],[4.2916463,51.9949137],[4.2921798,51.9948928],[4.2924994,51.9948329],[4.292742,51.9946912],[4.2939954,51.9935143],[4.2947151,51.993205],[4.2955706,51.9930801],[4.2965114,51.9931639],[4.3027037,51.9944582],[4.302748,51.9944666],[4.3068594,51.9951493],[4.3118065,51.9962488],[4.3120278,51.9962751],[4.3139848,51.9963172],[4.3142481,51.9962928],[4.3142656,51.9962867],[4.3146933,51.9963222],[4.3150955,51.996285],[4.3154238,51.9961915],[4.3156222,51.9961081],[4.315766,51.9959893],[4.3169558,51.9945646],[4.3174498,51.9941763],[4.3181344,51.9938966],[4.3196613,51.993439],[4.3198883,51.9933327],[4.3207948,51.9927005],[4.3208921,51.992614],[4.322873,51.9903195],[4.3229427,51.9902018],[4.3232824,51.989218],[4.3234479,51.9889787],[4.3235053,51.9887768],[4.3234672,51.9883612],[4.3233534,51.988144],[4.3230579,51.9878594],[4.3229268,51.987765],[4.3222508,51.9873965],[4.3212975,51.9867102],[4.320828,51.9862283],[4.3206742,51.9857151],[4.320819,51.9851671],[4.3208269,51.985065],[4.320779,51.9846192],[4.3207307,51.9844855],[4.3204759,51.9840825],[4.3203978,51.9839915],[4.3200392,51.9836692],[4.3198986,51.9835751],[4.3192051,51.9832268],[4.3187767,51.9827627],[4.3186387,51.9821926],[4.3186621,51.9817992],[4.3186153,51.9816236],[4.318422,51.9813085],[4.3182975,51.9811778],[4.3152334,51.9789373],[4.3151033,51.9788629],[4.3143561,51.9785298],[4.3142249,51.9784833],[4.3122726,51.9779492],[4.3116908,51.9775277],[4.3115882,51.9774666],[4.3100684,51.9767249],[4.3093618,51.9761156],[4.3090185,51.9755184],[4.3090922,51.9749281],[4.310087,51.9738942],[4.3101726,51.9737595],[4.3104983,51.9728283],[4.3109102,51.9723276],[4.3115564,51.9719706],[4.3123681,51.9717825],[4.313235,51.9717887],[4.3140395,51.9719884],[4.3147222,51.9723836],[4.3152766,51.9728508],[4.3155134,51.9729792],[4.3163241,51.973254],[4.3164883,51.9732945],[4.318856,51.973681],[4.318992,51.9736949],[4.3194785,51.9737155],[4.3197534,51.9736945],[4.3202493,51.9735949],[4.3204951,51.9735101],[4.3207368,51.9733834],[4.3208363,51.9733199],[4.321739,51.9726165],[4.3226789,51.9723595],[4.3238045,51.972381],[4.3242336,51.9724497],[4.3259526,51.9729981],[4.3261002,51.9730333],[4.3348056,51.9744581],[4.3356591,51.9747],[4.3362619,51.9750834],[4.3365993,51.9755754],[4.3366262,51.9761146],[4.3361644,51.9769827],[4.3361282,51.9771312],[4.3361732,51.9772788],[4.3363117,51.9775102],[4.33643,51.9776382],[4.3366091,51.9777357],[4.3370227,51.9778951],[4.3372242,51.9779487],[4.3409674,51.9785516],[4.3412319,51.9785634],[4.3419032,51.9785171],[4.3421102,51.9784831],[4.3431356,51.9782104],[4.3443509,51.9782304],[4.3449806,51.9783111],[4.3453425,51.9783006],[4.3461581,51.9781456],[4.3471455,51.9780661],[4.3480806,51.9782206],[4.3491071,51.978572],[4.3491408,51.9786125],[4.3493424,51.9787228],[4.3502444,51.979056],[4.3518019,51.9799519],[4.3526825,51.9807332],[4.3529535,51.9808782],[4.3533913,51.9810138],[4.3535415,51.9810481],[4.3546192,51.9812141],[4.3549877,51.9812115],[4.3556512,51.9810992],[4.3558929,51.9810264],[4.3569969,51.9805198],[4.3579783,51.9804127],[4.3646159,51.9815118],[4.3647613,51.9815263],[4.3652567,51.9815445],[4.3656645,51.9814847],[4.365984,51.9813705],[4.366271,51.9811818],[4.366433,51.9809807],[4.3665071,51.9807475],[4.3664735,51.9804663],[4.3663879,51.9802858],[4.3661904,51.9801428],[4.3651125,51.9796325],[4.3642777,51.9790143],[4.3640221,51.9788936],[4.3633621,51.9787069],[4.3631393,51.9786687],[4.3624318,51.9786202],[4.3614336,51.9784375],[4.3612549,51.9784193],[4.3603299,51.9783971],[4.3593091,51.9782378],[4.3585424,51.977866],[4.3580914,51.9773402],[4.3580433,51.9765909],[4.3584867,51.9755707],[4.3585625,51.9755213],[4.3586645,51.9753564],[4.3589727,51.9742265],[4.3596294,51.9728221],[4.3601731,51.9720354],[4.3608619,51.9716418],[4.3617517,51.9714462],[4.3627702,51.9714856],[4.3675549,51.9722808],[4.3685019,51.972577],[4.3691198,51.9730479],[4.3693824,51.9736572],[4.3692993,51.9745721],[4.3693301,51.9747289],[4.3694469,51.9748694],[4.3696351,51.9749764],[4.370207,51.9752013],[4.3704111,51.9752565],[4.3718101,51.9754859],[4.3727748,51.9757842],[4.3734003,51.9762626],[4.3736487,51.976858],[4.3734759,51.9774611],[4.3725611,51.978264],[4.3724531,51.9784068],[4.3724316,51.9785638],[4.3725848,51.9795906],[4.3722796,51.9801566],[4.3719417,51.9803872],[4.3718476,51.9804678],[4.3715295,51.9808156],[4.3714373,51.9810048],[4.3714179,51.9811742],[4.3714437,51.9813283],[4.3715526,51.9814679],[4.3721031,51.9819415],[4.372364,51.98208],[4.3728501,51.9822328],[4.3729948,51.9822669],[4.3750473,51.9826013],[4.37592,51.9828619],[4.376523,51.9832727],[4.3768327,51.9837932],[4.3768037,51.984352],[4.3756619,51.9860334],[4.3756281,51.9860957],[4.3754931,51.9864211],[4.3754714,51.9865578],[4.3755177,51.9866922],[4.3756534,51.9869127],[4.3757634,51.9870322],[4.3759267,51.9871256],[4.3762897,51.9872768],[4.3765488,51.9873443],[4.3769214,51.9873921],[4.3773175,51.9873746],[4.377651,51.9873],[4.3779682,51.9871606],[4.3784232,51.9868143],[4.3785441,51.9866813],[4.3791307,51.9856593],[4.37916,51.9855917],[4.3793176,51.9850709],[4.3797108,51.9844798],[4.3803986,51.9840679],[4.3812955,51.9838597],[4.3823263,51.9838922],[4.3843212,51.9842245],[4.3852707,51.9845298],[4.3858828,51.9850122],[4.3861179,51.9856075],[4.385932,51.9862145],[4.3850075,51.9870643],[4.3848967,51.9872306],[4.3847906,51.9875741],[4.3848023,51.9877742],[4.3848908,51.9879788],[4.385019,51.9881383],[4.3852372,51.9882547],[4.3857274,51.9884249],[4.3858909,51.9884663],[4.3887816,51.9889582],[4.3895049,51.9893046],[4.3906451,51.9904429],[4.3907695,51.9910025],[4.3905332,51.9915535],[4.3899714,51.992006],[4.3891734,51.992289],[4.3880633,51.9923702],[4.3877872,51.9924266],[4.387464,51.9925408],[4.387264,51.9926451],[4.3871366,51.9927864],[4.386559,51.9938372],[4.3865226,51.9939457],[4.3864914,51.9941863],[4.3865669,51.9944244],[4.3867253,51.9946186],[4.3869646,51.9947874],[4.3874171,51.9949784],[4.3876942,51.9950491],[4.3883665,51.9951267],[4.3887748,51.9951013],[4.3891115,51.9950167],[4.3893237,51.9949346],[4.3894783,51.9948129],[4.3900964,51.9941022],[4.3901573,51.9940079],[4.3904253,51.9934012],[4.3908422,51.9927988],[4.3915402,51.9923924],[4.3924432,51.9921921],[4.393483,51.9922347],[4.4020375,51.9936153],[4.4028125,51.9937973],[4.4035095,51.9941828],[4.4039068,51.9946984],[4.4039537,51.9952988],[4.4038836,51.9954942],[4.4020717,51.9981339],[4.402033,51.9982074],[4.4017364,51.998995],[4.4013263,51.9996083],[4.4008005,52.0000958],[4.4007162,52.0002021],[4.4001992,52.0011549],[4.3992014,52.0025526],[4.3991553,52.0026405],[4.3990372,52.0029841],[4.3990263,52.0031292],[4.3990908,52.0032689],[4.399254,52.0034827],[4.3993896,52.0036038],[4.3995812,52.0036913],[4.4005789,52.0040063],[4.4006846,52.0040334],[4.4012408,52.0041454],[4.4013638,52.0041631],[4.4031983,52.0043247],[4.4047373,52.0047339],[4.4054367,52.0052056],[4.4057402,52.0058125],[4.4055826,52.0064917],[4.4054216,52.006753],[4.4049011,52.0072676],[4.4041618,52.0075957],[4.4032612,52.007728],[4.401364,52.007592],[4.4011242,52.0075993],[4.4009015,52.0076544],[4.4007199,52.0077512],[4.4002388,52.0081084],[4.4001039,52.0082611],[4.3999637,52.0085372],[4.3999423,52.0087528],[4.4000849,52.0092316],[4.400163,52.009367],[4.4003246,52.0095483],[4.4004753,52.0096656],[4.4006799,52.0097459],[4.4024775,52.0102132],[4.4029592,52.0103985],[4.4031269,52.010446],[4.4046543,52.0107407],[4.404939,52.0107593],[4.4052132,52.0107087],[4.4057449,52.0105346],[4.4058844,52.010475],[4.4069729,52.0098839],[4.4078711,52.0096422],[4.4091202,52.0095985],[4.409412,52.0095494],[4.4096465,52.0094315],[4.410085,52.0090951],[4.4102138,52.0089449],[4.4106346,52.0080961],[4.4106643,52.0079294],[4.4105928,52.0077676],[4.4098199,52.0067895],[4.409792,52.0062417],[4.4101047,52.0057195],[4.4107128,52.0053085],[4.411527,52.0050689],[4.4124234,52.0050359],[4.4149506,52.0055813],[4.4158364,52.0059334],[4.4163731,52.0064421],[4.4165244,52.0070384],[4.4159164,52.0083356],[4.4158916,52.0084143],[4.415842,52.0087109],[4.4139507,52.0118635],[4.4139054,52.0120186],[4.4139044,52.0122844],[4.4139657,52.0124658],[4.4141244,52.0126892],[4.4143832,52.0128809],[4.4150509,52.0131598],[4.4153613,52.0132329],[4.4156287,52.0132553],[4.4159629,52.013235],[4.4178166,52.0128424],[4.4180257,52.0127728],[4.4181874,52.0126655],[4.4194776,52.0114634],[4.4203969,52.011148],[4.421493,52.0111128],[4.4228293,52.0113731],[4.4234648,52.0117341],[4.4238523,52.0122321],[4.4239641,52.0129705],[4.4236367,52.013535],[4.4229331,52.0141437],[4.4228067,52.0143347],[4.4227376,52.0146049],[4.4227484,52.0147788],[4.4228719,52.0150994],[4.4229035,52.0157292],[4.42283,52.0158447],[4.4227798,52.0160147],[4.4228372,52.0161838],[4.4229938,52.016327],[4.4230353,52.0163442],[4.4228158,52.0163127],[4.4225253,52.0163453],[4.4222797,52.0164464],[4.421894,52.0166876],[4.4210125,52.0169094],[4.4208777,52.0169539],[4.4200464,52.0173029],[4.4181213,52.0176008],[4.4179074,52.0176576],[4.4177333,52.0177532],[4.4174222,52.0179893],[4.4172689,52.0181994],[4.4171631,52.0185939],[4.4171905,52.0188091],[4.4172618,52.0189414],[4.4174448,52.0191216],[4.4177508,52.0193054],[4.4180845,52.0194197],[4.4197366,52.0196713],[4.4198979,52.0196844],[4.4216845,52.0197043],[4.4219119,52.0196845],[4.4225521,52.0195629],[4.4228499,52.019453],[4.4230314,52.0192706],[4.4232685,52.0188144],[4.4232943,52.0187477],[4.423493,52.0179757],[4.4234981,52.017859],[4.4234314,52.0174607],[4.4235238,52.0168007],[4.4234891,52.0166198],[4.4233408,52.0164623],[4.4232664,52.0164283],[4.4235007,52.0164582],[4.4237762,52.0164267],[4.4240118,52.0163334],[4.4244737,52.0160605],[4.4261562,52.0156711],[4.4263922,52.0155818],[4.4265572,52.0154445],[4.4271946,52.0146239],[4.4279543,52.0141978],[4.4289025,52.0140134],[4.4308729,52.0142169],[4.4310947,52.0142186],[4.4313071,52.0141791],[4.4316412,52.0140806],[4.4318399,52.0139943],[4.4319815,52.0138723],[4.4323654,52.0133873],[4.4324382,52.0132139],[4.4325398,52.0120373],[4.4325037,52.0118717],[4.4321639,52.0112403],[4.4319797,52.0110593],[4.4308916,52.0104083],[4.4305281,52.0098257],[4.4305664,52.0092596],[4.4310286,52.008345],[4.4310612,52.0081965],[4.4310128,52.0080497],[4.4305108,52.0072459],[4.4305647,52.0066049],[4.4310935,52.0059997],[4.4317214,52.0055543],[4.4318167,52.0054683],[4.4320068,52.0052449],[4.4326298,52.0049059],[4.4340621,52.0046331],[4.4342412,52.0045817],[4.4346641,52.0044139],[4.4348019,52.004343],[4.4357408,52.0037239],[4.4366877,52.0032295],[4.4367897,52.0031641],[4.4386823,52.0016789],[4.4387858,52.0015683],[4.4392412,52.000867],[4.4397287,52.0003382],[4.4404292,51.9999951],[4.4412866,51.9998381],[4.4422407,51.9998935],[4.4458209,52.0005872],[4.4461406,52.0006034],[4.4464406,52.0005332],[4.4489121,51.9995237],[4.4495233,51.999345],[4.4501562,51.9992187],[4.4510332,51.9992235],[4.451833,51.9994185],[4.4524658,51.9997778],[4.4527329,52.0001105],[4.4528509,52.0002161],[4.4544266,52.0012674],[4.4545483,52.0013326],[4.4560145,52.001955],[4.4565877,52.0022845],[4.4571039,52.0028572],[4.4571818,52.0035252],[4.45705,52.0039749],[4.4565846,52.0046476],[4.4560355,52.0052287],[4.455597,52.005629],[4.4544022,52.0061361],[4.4535631,52.00631],[4.4527287,52.0062891],[4.4503161,52.0055662],[4.4500632,52.005523],[4.4498018,52.0055378],[4.4492706,52.0056295],[4.4490239,52.0057055],[4.4488407,52.0058327],[4.4484175,52.0062724],[4.4483219,52.0064424],[4.4482447,52.0067991],[4.4482637,52.0069764],[4.4484006,52.0072878],[4.4485231,52.0074416],[4.4487302,52.007556],[4.4493192,52.007773],[4.449532,52.0078255],[4.449761,52.0078345],[4.4522122,52.0076914],[4.4523379,52.0076771],[4.4527348,52.0076093],[4.4537466,52.0077169],[4.454584,52.0080791],[4.4552949,52.0088663],[4.4555101,52.0093866],[4.4554218,52.0098981],[4.4550502,52.0103588],[4.4544081,52.0107302],[4.4530059,52.0112273],[4.4527414,52.0113887],[4.4515794,52.0126047],[4.4515007,52.0127224],[4.4513394,52.0131147],[4.4509212,52.0136599],[4.450241,52.0140444],[4.4491822,52.01432],[4.4488756,52.0144702],[4.4485914,52.0147122],[4.4485173,52.014791],[4.447767,52.0158157],[4.4477129,52.015925],[4.4473991,52.0170568],[4.4472529,52.0172911],[4.4472049,52.0174327],[4.4471732,52.017876],[4.4472094,52.0180371],[4.4473362,52.0181798],[4.4475258,52.0183233],[4.4477825,52.0184466],[4.4484972,52.0186523],[4.4486675,52.0186864],[4.4497525,52.0188152],[4.4504681,52.0190576],[4.4511993,52.0195094],[4.4515691,52.0196323],[4.4520706,52.0196954],[4.4522782,52.0197028],[4.4533582,52.0196459],[4.4545203,52.019703],[4.4546041,52.0197041],[4.4569169,52.0196531],[4.4610888,52.0197043],[4.4612545,52.0196947],[4.4617734,52.0196267],[4.4619859,52.0195765],[4.462163,52.0194882],[4.4624228,52.0193105],[4.4625743,52.0191491],[4.4626066,52.0189636],[4.462567,52.0187258],[4.4625026,52.0185816],[4.4623651,52.0184586],[4.4611419,52.0176811],[4.4608193,52.0171911],[4.4608044,52.0166587],[4.4611014,52.0161587],[4.4616706,52.0157583],[4.4624959,52.0154919],[4.4631545,52.0153671],[4.463404,52.0152842],[4.463789,52.0150884],[4.463949,52.0149741],[4.4643091,52.0146066],[4.4643838,52.0145025],[4.4647579,52.013728],[4.4670458,52.0122822],[4.4671859,52.0121567],[4.46725,52.0120097],[4.4673446,52.0113801],[4.4673316,52.0112447],[4.467224,52.0109334],[4.467207,52.0102628],[4.4673422,52.009347],[4.4673451,52.0093104],[4.4673792,52.0070746],[4.4673748,52.0070207],[4.4672547,52.006355],[4.4671625,52.0061809],[4.4669652,52.0060439],[4.4665463,52.005852],[4.4662601,52.0057728],[4.4659465,52.0057752],[4.464745,52.0059483],[4.4637525,52.0058513],[4.462925,52.0055155],[4.4623952,52.004999],[4.4622576,52.0043952],[4.4628542,52.0031645],[4.4628758,52.0029653],[4.4627554,52.00278],[4.4609651,52.0011831],[4.4607395,52.0003396],[4.4606708,52.0002099],[4.4604933,51.9999933],[4.4602094,51.9998076],[4.4586399,51.9992448],[4.4584716,51.9992007],[4.4576984,51.9990663],[4.4575414,51.9990502],[4.4569027,51.9990283],[4.4560018,51.9987377],[4.455118,51.9981237],[4.4550085,51.9980617],[4.4544709,51.9978147],[4.4542539,51.9977464],[4.4537707,51.9976529],[4.4536066,51.9976335],[4.4525817,51.9975869],[4.4518319,51.9973692],[4.4512456,51.9970001],[4.4507026,51.9962757],[4.4505786,51.9961608],[4.4504039,51.9960745],[4.4500771,51.9959589],[4.4492599,51.9954982],[4.4488518,51.9948864],[4.4487879,51.9943739],[4.4488768,51.993765],[4.4492946,51.9932674],[4.4499866,51.9929046],[4.4509183,51.9927168],[4.4518006,51.9926504],[4.4521002,51.9925846],[4.4535714,51.9920131],[4.4537591,51.991908],[4.4538772,51.9917695],[4.4545321,51.990504],[4.4554908,51.9898603],[4.4556128,51.9897484],[4.4564462,51.9886614],[4.4564688,51.9886285],[4.4573792,51.9871466],[4.4574245,51.9870209],[4.4574587,51.98674],[4.4574247,51.9865666],[4.4572861,51.9864143],[4.4570435,51.9862391],[4.45688,51.9861515],[4.4566818,51.9860977],[4.4561253,51.986004],[4.4560258,51.9859917],[4.4536478,51.9858049],[4.4513993,51.9849898],[4.4512439,51.9849477],[4.4505811,51.9848223],[4.4503835,51.9848027],[4.4497145,51.9847938],[4.4489366,51.9846025],[4.4483167,51.9842551],[4.447903,51.9837602],[4.4476933,51.9833313],[4.4476366,51.982669],[4.4480194,51.9820726],[4.4486584,51.9816165],[4.4488103,51.9814406],[4.4491109,51.9807588],[4.4491362,51.9806527],[4.4491487,51.9803625],[4.4490511,51.9801256],[4.4488736,51.9799362],[4.4487132,51.9798178],[4.4484972,51.9797399],[4.4475465,51.9795217],[4.4468764,51.9792032],[4.446444,51.9787792],[4.4462333,51.978028],[4.4460443,51.9777955],[4.4455513,51.9774744],[4.4453312,51.9773765],[4.4442203,51.977056],[4.4439033,51.9770139],[4.443588,51.9770609],[4.4433372,51.9771877],[4.4423847,51.9779463],[4.4416303,51.9782442],[4.4407642,51.9783479],[4.4398049,51.9782366],[4.4352666,51.9773415],[4.4345746,51.976957],[4.4339836,51.9761944],[4.4338098,51.976052],[4.4329766,51.9755962],[4.4326023,51.9751347],[4.4325136,51.974609],[4.4331588,51.9728631],[4.4337367,51.9724129],[4.4348564,51.9720773],[4.4357623,51.9720258],[4.4366239,51.9721865],[4.4373157,51.9725309],[4.4380962,51.9734646],[4.4382306,51.9735777],[4.4384149,51.9736596],[4.4388631,51.9737993],[4.4389875,51.9738296],[4.443101,51.9745693],[4.4433507,51.9745863],[4.443595,51.9745499],[4.4438046,51.9744642],[4.444767,51.9739016],[4.4449262,51.9737653],[4.4454606,51.9730576],[4.4461177,51.972585],[4.4470483,51.9723068],[4.4474088,51.972251],[4.4498751,51.9722312],[4.4507156,51.9724527],[4.4514195,51.9728986],[4.4518678,51.9732951],[4.4520159,51.9733917],[4.4534916,51.9741048],[4.4538975,51.9746026],[4.4539625,51.975156],[4.4528363,51.9769042],[4.4527883,51.9770256],[4.4527332,51.9773657],[4.4527579,51.9775348],[4.4528826,51.9776861],[4.4533388,51.9780488],[4.4535219,51.9781519],[4.4543704,51.9784863],[4.4545784,51.9785424],[4.4550152,51.9786127],[4.4552279,51.9786269],[4.455438,51.9786023],[4.4557892,51.9785268],[4.4559884,51.9784611],[4.4561453,51.9783608],[4.4568724,51.9777222],[4.4569621,51.9776152],[4.4573312,51.9769787],[4.4578535,51.9764944],[4.4585851,51.9761839],[4.4601105,51.9759808],[4.4609845,51.9760714],[4.4620117,51.9765011],[4.4626225,51.9770267],[4.4630256,51.9775944],[4.4630944,51.9776702],[4.4639962,51.978472],[4.4640599,51.978521],[4.4643048,51.9786842],[4.4645548,51.9787927],[4.46488,51.9788778],[4.4651658,51.9789134],[4.4654513,51.9788769],[4.4662527,51.9786641],[4.4665054,51.9785525],[4.4670348,51.9781904],[4.4672049,51.9779874],[4.4673848,51.9774913],[4.4674024,51.9773932],[4.4674029,51.9764107],[4.46739,51.9763269],[4.467199,51.9757051],[4.4671024,51.9755519],[4.4669231,51.9754305],[4.4662339,51.9751083],[4.4654573,51.9744617],[4.4652029,51.973972],[4.4652369,51.9734637],[4.465551,51.9729962],[4.4670418,51.97202],[4.4672249,51.9718034],[4.4673313,51.9714881],[4.4673361,51.9713201],[4.4672585,51.9710421],[4.4670997,51.9708301],[4.4668815,51.9706689],[4.4665738,51.9705353],[4.4661681,51.9704434],[4.4660142,51.9704199],[4.4645394,51.9702978],[4.4641745,51.9703255],[4.463587,51.9704694],[4.4634049,51.9705342],[4.4629636,51.9707489],[4.4620587,51.9710433],[4.4611211,51.9710907],[4.4601913,51.9708995],[4.4591706,51.9704495],[4.4584111,51.97],[4.458263,51.9699323],[4.4574468,51.9696502],[4.4573116,51.9696141],[4.4568182,51.9695172],[4.4561397,51.9691776],[4.4556907,51.9686889],[4.4554826,51.9681632],[4.4553303,51.9679789],[4.4551763,51.967867],[4.4549932,51.9677715],[4.4547699,51.9677181],[4.4541304,51.9676361],[4.4539049,51.9676292],[4.4533808,51.9676639],[4.4524861,51.9675074],[4.4517402,51.9672171],[4.4496325,51.9662068],[4.4478518,51.9645137],[4.4477269,51.9639542],[4.44805,51.9632563],[4.4480774,51.9631519],[4.448097,51.9628675],[4.4479958,51.962619],[4.4477754,51.9623895],[4.4476182,51.962275],[4.4474086,51.9621989],[4.4469493,51.9620908],[4.4465947,51.9620652],[4.4454642,51.962158],[4.4446977,51.9620418],[4.4382177,51.9593883],[4.4376465,51.9590707],[4.4372002,51.9585919],[4.4370868,51.9585],[4.4367296,51.9582772],[4.4366397,51.9582295],[4.4346723,51.957348],[4.4346355,51.9573326],[4.4326074,51.9565359],[4.4324323,51.9564858],[4.4318046,51.9563657],[4.4315745,51.9563457],[4.4313459,51.9563715],[4.4308127,51.9564886],[4.4298923,51.9565785],[4.4290542,51.9564668],[4.4282576,51.956132],[4.4277132,51.9556514],[4.4274161,51.9550903],[4.4272264,51.9549045],[4.4270113,51.954778],[4.4269139,51.9547299],[4.4249312,51.953911],[4.4247622,51.9538593],[4.4221699,51.953312],[4.4215848,51.9529945],[4.4211679,51.9525335],[4.4210561,51.9524405],[4.4206607,51.9521875],[4.4205411,51.9521258],[4.417921,51.9510457],[4.4177205,51.950988],[4.4170649,51.9508702],[4.4167237,51.9508605],[4.416413,51.9509482],[4.4159729,51.9511615],[4.415749,51.9513442],[4.4156183,51.9515406],[4.4155641,51.9517264],[4.4156678,51.9536554],[4.415413,51.954121],[4.4148986,51.9545235],[4.413631,51.9551022],[4.413496,51.9551823],[4.4114095,51.9567882],[4.4113463,51.9568454],[4.4105217,51.957731],[4.4100004,51.9581323],[4.4092403,51.9584845],[4.4090647,51.958601],[4.4089661,51.958748],[4.4086689,51.9595868],[4.4080832,51.9601885],[4.4075564,51.9604952],[4.4066939,51.960732],[4.4053109,51.9607114],[4.4051627,51.9607186],[4.4043307,51.9608125],[4.4034493,51.9607642],[4.4026111,51.9605129],[4.3973939,51.958335],[4.396947,51.9579238],[4.3967491,51.9574165],[4.3968683,51.9568484],[4.3973613,51.9563183],[4.3978273,51.9559885],[4.3979543,51.9558604],[4.3980059,51.9557135],[4.3980367,51.9552982],[4.3980134,51.9551628],[4.3975907,51.9541748],[4.3975368,51.954087],[4.3971156,51.9535716],[4.3966798,51.9527079],[4.3965414,51.9525518],[4.3954147,51.9517265],[4.3951225,51.9511831],[4.3950263,51.9507495],[4.3949462,51.9505976],[4.39469,51.9503036],[4.3944789,51.9501538],[4.3931989,51.9495754],[4.3920306,51.9489031],[4.3918704,51.9488333],[4.3897319,51.9481464],[4.3894427,51.9480966],[4.3891456,51.9481233],[4.3886692,51.9482315],[4.3884455,51.9483128],[4.3882822,51.9484374],[4.3880615,51.9486863],[4.3879909,51.948801],[4.3878082,51.9492886],[4.3877913,51.9494215],[4.3878382,51.9495517],[4.3879595,51.9497461],[4.3881736,51.9499301],[4.3892358,51.9504747],[4.3896489,51.9509135],[4.3897957,51.951424],[4.3896475,51.9521308],[4.3896589,51.9522863],[4.3897555,51.9524301],[4.3901038,51.9527677],[4.3904475,51.9532886],[4.3904698,51.9538096],[4.3901932,51.954302],[4.389653,51.9547025],[4.3889256,51.9549571],[4.3878844,51.9550441],[4.3868721,51.9548536],[4.3849564,51.9542142],[4.384566,51.954161],[4.3841124,51.9541782],[4.3839254,51.9542008],[4.3832623,51.9543384],[4.3823789,51.9543086],[4.3815757,51.9540792],[4.380967,51.9536824],[4.3806387,51.9531748],[4.3806373,51.9526281],[4.3809907,51.9520769],[4.3821998,51.9508702],[4.3823086,51.9506287],[4.3823054,51.9504476],[4.3822612,51.950298],[4.3821384,51.950166],[4.3816813,51.9498248],[4.3815648,51.9497552],[4.3787784,51.9484298],[4.3784654,51.9483437],[4.3779102,51.9482811],[4.3776418,51.9482819],[4.3773921,51.9483429],[4.3763144,51.9487619],[4.3755001,51.9488667],[4.3746921,51.948791],[4.3733791,51.9482977],[4.3731713,51.9482447],[4.3721083,51.9480867],[4.3712035,51.9477148],[4.3707639,51.9472541],[4.370654,51.9471662],[4.3702032,51.946885],[4.3698796,51.9467679],[4.3690005,51.9466184],[4.3687108,51.9466062],[4.3671557,51.9467354],[4.3663245,51.946571],[4.3652096,51.9460204],[4.364919,51.9459336],[4.3646881,51.9459007],[4.3643595,51.9459009],[4.3640984,51.9459385],[4.3637865,51.946037],[4.3635039,51.9461888],[4.3633928,51.9462637],[4.3626043,51.9469339],[4.3617507,51.9472145],[4.3593297,51.9472854],[4.3584834,51.9471148],[4.3578035,51.9467652],[4.3573809,51.9462852],[4.3572776,51.9457542],[4.3578277,51.9446885],[4.3578495,51.9446352],[4.3580206,51.9440746],[4.3580275,51.9439356],[4.3579654,51.9438019],[4.3577162,51.9434704],[4.3575841,51.9433503],[4.3573969,51.9432626],[4.3569922,51.9431302],[4.3566323,51.9430781],[4.3562243,51.943085],[4.3560561,51.9431001],[4.3547253,51.9433202],[4.3538809,51.9432683],[4.3530575,51.943015],[4.352429,51.9427314],[4.3522275,51.9426674],[4.3489081,51.9419924],[4.3486869,51.9419698],[4.3465552,51.9419585],[4.3457026,51.9417496],[4.3450758,51.9413764],[4.3449348,51.9413108],[4.3443841,51.9411144],[4.3442387,51.9410749],[4.3420119,51.9406422],[4.3418579,51.9406233],[4.3408324,51.9405672],[4.3398112,51.9404035],[4.3373145,51.9398201],[4.3355252,51.9390911],[4.3351163,51.9387958],[4.3349196,51.9386961],[4.3341821,51.9384405],[4.3340069,51.9383971],[4.3323793,51.9381396],[4.3320293,51.9381379],[4.3314647,51.9382216],[4.3313486,51.9382454],[4.3295384,51.9387233],[4.3294457,51.9387529],[4.3286778,51.9390421],[4.328534,51.939113],[4.3266985,51.9402838],[4.3266038,51.9403587],[4.3263052,51.9406544],[4.3256248,51.9411012],[4.3247291,51.9413496],[4.323692,51.9414758],[4.3234112,51.9415505],[4.3232048,51.94169],[4.3225323,51.9424008],[4.3224534,51.9425219],[4.3216124,51.9446678],[4.3208119,51.945265],[4.3199598,51.9455044],[4.3190076,51.9455151],[4.3180858,51.9452807],[4.3170296,51.9447517],[4.3169116,51.9447035],[4.3163699,51.9445265],[4.316349,51.9445015],[4.3161327,51.9443886],[4.3154038,51.9441395],[4.3151849,51.9440067],[4.3150586,51.9439454],[4.3111698,51.942456],[4.311042,51.9424173],[4.3089783,51.9419389],[4.3011442,51.9389716],[4.2999301,51.9382748],[4.2998206,51.9382229],[4.2923777,51.9353487],[4.2916352,51.9349078],[4.291267,51.9343637],[4.2912795,51.9337741],[4.2916706,51.9332361],[4.2924319,51.932807],[4.2931083,51.9325595],[4.2932637,51.9324831],[4.2939104,51.9320643],[4.2947227,51.9317935],[4.2956702,51.9317284],[4.2971057,51.9318366],[4.298617,51.9321517],[4.2999535,51.9326114],[4.3044088,51.9348483],[4.3046281,51.9349239],[4.3048758,51.9349488],[4.3052554,51.934946],[4.3055984,51.93489],[4.3076029,51.9342053],[4.3078149,51.9340957],[4.3079456,51.9339452],[4.3083766,51.9330867],[4.3083986,51.9330301],[4.3087088,51.931922],[4.3087158,51.9318906],[4.3092622,51.9285483],[4.3094895,51.9277392],[4.3098738,51.9272895],[4.3120307,51.9262438],[4.3121877,51.9261389],[4.3128302,51.925541],[4.3129508,51.9253148],[4.3129988,51.9247207],[4.3129866,51.924613],[4.3126757,51.9236177],[4.3125803,51.9234667],[4.3117689,51.9226549],[4.3115999,51.9221337],[4.3118907,51.9213249],[4.311908,51.9212224],[4.3118822,51.9197847],[4.3118255,51.9196153],[4.3116001,51.919284],[4.3114339,51.9191344],[4.3111854,51.9190375],[4.3106325,51.9189092],[4.3102294,51.91889],[4.2990134,51.9203302],[4.2988424,51.9203025],[4.298558,51.9203277],[4.2965737,51.9207636],[4.2955665,51.9208985],[4.2940921,51.9209259],[4.2939562,51.9209364],[4.2899536,51.9214861],[4.2887532,51.9214633],[4.2877017,51.9210984],[4.2833269,51.9185892],[4.283212,51.9185353],[4.2828081,51.9183826],[4.2824237,51.9183166],[4.2820678,51.9183182],[4.2817641,51.9183608],[4.2803711,51.9187654],[4.2787073,51.9187304],[4.278495,51.9187454],[4.2782991,51.9187978],[4.2779819,51.9189197],[4.2777872,51.9190291],[4.2772034,51.9195031],[4.2770804,51.9196573],[4.2770601,51.9198289],[4.2771716,51.9204031],[4.2769109,51.9211307],[4.2767229,51.9213722],[4.2766593,51.9214987],[4.2766583,51.9216313],[4.2768807,51.9225856],[4.2766683,51.9231003],[4.2761636,51.9235363],[4.275367,51.9238579],[4.2745722,51.9240861],[4.2743268,51.924201],[4.2732523,51.924975],[4.2731375,51.925088],[4.2730815,51.9252169],[4.2730356,51.9254669],[4.2730411,51.9255923],[4.273347,51.9267149],[4.2734472,51.9268782],[4.2736404,51.9270056],[4.2741047,51.9272111],[4.2748969,51.9280048],[4.2750214,51.9280985],[4.2753375,51.9282795],[4.2754339,51.9283261],[4.2771613,51.9290238],[4.2777152,51.9293224],[4.278257,51.9299039],[4.2783822,51.9300031],[4.2787406,51.9302168],[4.2788502,51.9302706],[4.2829408,51.9319074],[4.2836181,51.9323048],[4.2839875,51.932788],[4.2840482,51.9333134],[4.2835148,51.934266],[4.282224,51.9357002],[4.2816648,51.9360932],[4.280782,51.9363604],[4.2800769,51.9364661],[4.2798667,51.9365203],[4.279694,51.9366121],[4.2792644,51.9369249],[4.2791139,51.9371052],[4.2789584,51.9374839],[4.2789366,51.9375782],[4.2789052,51.9381157],[4.2785637,51.9385994],[4.2766381,51.939648],[4.2757088,51.9398766],[4.2747373,51.9398534],[4.2737945,51.9395677],[4.2727559,51.9390647],[4.2725733,51.9390002],[4.269802,51.9383275],[4.2696542,51.9383023],[4.2682716,51.9381619],[4.2674475,51.937783],[4.2669296,51.9371748],[4.2662248,51.9353457],[4.2660752,51.9347376],[4.2661651,51.9337518],[4.2664352,51.9330967],[4.267076,51.9321528],[4.2680938,51.9314057],[4.268134,51.9313732],[4.2691168,51.9305017],[4.2691517,51.9304676],[4.2698256,51.9297382],[4.269892,51.9296417],[4.2701418,51.929115],[4.2701599,51.9289096],[4.2700611,51.9285673],[4.2699458,51.9283928],[4.2697248,51.9282629],[4.2680552,51.9276317],[4.2671468,51.9268758],[4.2668833,51.9267403],[4.26534,51.9262726],[4.2651404,51.9262329],[4.2645141,51.9261679],[4.2642665,51.9261686],[4.2640336,51.9262208],[4.2607998,51.927361],[4.2606678,51.9274206],[4.2569743,51.9295212],[4.2568899,51.9295783],[4.2517296,51.9337345],[4.2516834,51.9337762],[4.2510936,51.9343814],[4.2495156,51.9354678],[4.2494787,51.9354953],[4.2448667,51.9392275],[4.2448548,51.9392375],[4.2419349,51.9417398],[4.241395,51.9420934],[4.2407811,51.9423039],[4.2406014,51.9423909],[4.2403653,51.9425479],[4.2402336,51.942671],[4.2401735,51.9428138],[4.2401276,51.9431313],[4.2401623,51.9433139],[4.2403124,51.9434727],[4.2414166,51.9442276],[4.2420465,51.94556],[4.2420871,51.9459918],[4.2421438,51.9461418],[4.2422793,51.946271],[4.2427005,51.9465523],[4.2430137,51.9466754]]]}},{"type":"Feature","properties":{"role":"surface_visible_outer_rim","surface_margin_m":50.0,"part_index":1},"geometry":{"type":"Polygon","coordinates":[[[4.3873801,51.940478],[4.3872263,51.9406124],[4.3867387,51.9412671],[4.3866965,51.9413393],[4.3865258,51.9417355],[4.3865144,51.9419358],[4.3867795,51.9427908],[4.3868525,51.9429182],[4.3869834,51.9430264],[4.3874378,51.9433029],[4.3875909,51.9433743],[4.3891492,51.943917],[4.3892578,51.9439479],[4.3896823,51.9440433],[4.389993,51.9440687],[4.3909163,51.9440198],[4.3917825,51.944128],[4.3929026,51.9446212],[4.3931178,51.944686],[4.3937398,51.9448001],[4.393975,51.9448182],[4.3942071,51.9447887],[4.3947249,51.9446659],[4.3949338,51.9445896],[4.3950905,51.9444749],[4.3954699,51.9440779],[4.3955526,51.9439494],[4.3956437,51.9437026],[4.3956512,51.9435255],[4.3955473,51.9433604],[4.3948976,51.9427329],[4.3945465,51.9422084],[4.3945501,51.9414771],[4.3944795,51.9412826],[4.3938651,51.9404844],[4.3938165,51.9399172],[4.3941232,51.9393822],[4.3947382,51.9389609],[4.3955676,51.9387176],[4.3964693,51.9386897],[4.3981696,51.9391139],[4.3984528,51.9391465],[4.3987342,51.9391086],[4.3997775,51.9388254],[4.4000161,51.9387208],[4.4005592,51.9383618],[4.4014037,51.9379482],[4.4023428,51.9377996],[4.404561,51.9380609],[4.4065599,51.9384647],[4.4067898,51.9384869],[4.4070192,51.9384631],[4.4074962,51.9383632],[4.4077668,51.9382615],[4.4079416,51.9380985],[4.4081769,51.9377192],[4.4082115,51.9374719],[4.4081434,51.9372569],[4.4079696,51.9370422],[4.4074006,51.9366527],[4.4064396,51.9357896],[4.4062613,51.9356778],[4.4060317,51.9356107],[4.4048706,51.9354153],[4.4047359,51.9354009],[4.4039078,51.9353611],[4.4038002,51.9353609],[4.4029561,51.9353978],[4.4026992,51.935439],[4.402083,51.9356172],[4.4018356,51.9357342],[4.4006738,51.9365843],[4.3997546,51.9368676],[4.3986638,51.9369359],[4.3984517,51.9369696],[4.3971575,51.9373108],[4.3963311,51.9373052],[4.3955431,51.9371145],[4.3948656,51.936736],[4.3942365,51.9362296],[4.3941008,51.936146],[4.3924156,51.9353511],[4.3922121,51.9352836],[4.3914865,51.9351286],[4.3911279,51.9351103],[4.3903287,51.9351938],[4.3900635,51.9352563],[4.3894814,51.9354821],[4.3894191,51.935509],[4.3879492,51.9362215],[4.3878567,51.936275],[4.3874779,51.9365359],[4.3873101,51.9367363],[4.3872346,51.9369414],[4.3872364,51.9371458],[4.3874582,51.9377186],[4.387515,51.937815],[4.3879905,51.9384027],[4.3883754,51.9390884],[4.3882497,51.9397352],[4.3876323,51.9403265],[4.3873801,51.940478]]]}},{"type":"Feature","properties":{"role":"surface_visible_outer_rim","surface_margin_m":50.0,"part_index":2},"geometry":{"type":"Polygon","coordinates":[[[4.3818837,52.0195008],[4.3828855,52.0196856],[4.3830546,52.0197038],[4.38442,52.0197497],[4.3847107,52.0197229],[4.3847587,52.0197044],[4.387555,52.0197045],[4.3876846,52.0196973],[4.3881744,52.0196427],[4.3884563,52.0195713],[4.3890161,52.0193349],[4.3898654,52.0191084],[4.3907182,52.0190872],[4.3918705,52.0193425],[4.3920196,52.0193649],[4.3932595,52.0194678],[4.3945082,52.0196873],[4.3947078,52.0197045],[4.4005614,52.0197037],[4.4006966,52.0196958],[4.4012723,52.0196286],[4.403954,52.0197039],[4.4041883,52.0196869],[4.4047952,52.0195793],[4.4049996,52.0195207],[4.4051651,52.0194264],[4.4054519,52.0192029],[4.4055428,52.0191115],[4.4062516,52.0181591],[4.4063165,52.0179996],[4.4062841,52.0178363],[4.4061712,52.0176157],[4.4060763,52.0174959],[4.4059285,52.0173986],[4.4055315,52.0172049],[4.4054096,52.0171567],[4.4044659,52.0168609],[4.4038611,52.0165936],[4.4030415,52.0158238],[4.4028478,52.0157012],[4.402174,52.0154129],[4.4018919,52.0153404],[4.4012246,52.0152639],[4.4008551,52.0152808],[4.3996529,52.0155354],[4.3987645,52.0154855],[4.3978348,52.0151692],[4.397203,52.01469],[4.3969467,52.0140959],[4.3971971,52.0129665],[4.3971865,52.0128082],[4.3970876,52.012662],[4.3969126,52.0125461],[4.3959126,52.0120833],[4.3957779,52.0120339],[4.3950653,52.0118331],[4.3949271,52.0118041],[4.3940653,52.011681],[4.3938388,52.0116711],[4.3936183,52.0117046],[4.3932779,52.0117931],[4.392955,52.0119577],[4.3927001,52.0121933],[4.3925881,52.0123663],[4.3925021,52.0126734],[4.3925071,52.0128427],[4.3926131,52.0129987],[4.393388,52.0137181],[4.3937309,52.0142812],[4.3937022,52.0148447],[4.3933279,52.015359],[4.392664,52.0157465],[4.3918111,52.0159488],[4.3908977,52.0159352],[4.3900005,52.0156915],[4.3839155,52.0129693],[4.3837027,52.0129037],[4.3832296,52.0128136],[4.3829355,52.0127963],[4.3826544,52.0128526],[4.382107,52.013045],[4.3818376,52.0132099],[4.3810061,52.0140937],[4.3807618,52.0142483],[4.3799307,52.0146069],[4.3792501,52.0147878],[4.3790657,52.0148584],[4.3789234,52.0149595],[4.3775384,52.0163049],[4.3774704,52.0163893],[4.3772981,52.0166754],[4.3772711,52.0169326],[4.3773536,52.0171541],[4.3775603,52.0173782],[4.377918,52.0175892],[4.378029,52.017643],[4.3803568,52.0185607],[4.3815535,52.0193726],[4.3818837,52.0195008]]]}},{"type":"Feature","properties":{"role":"surface_visible_outer_rim","surface_margin_m":50.0,"part_index":3},"geometry":{"type":"Polygon","coordinates":[[[4.2440231,51.9714499],[4.2448434,51.9711871],[4.2457768,51.9711394],[4.2470447,51.9713645],[4.2474308,51.9713672],[4.2477847,51.9713097],[4.2481386,51.9711768],[4.2484679,51.9709524],[4.2485553,51.970879],[4.2488977,51.9705207],[4.248979,51.9703962],[4.2490983,51.9700857],[4.2490737,51.9698276],[4.2486046,51.9690349],[4.2488415,51.9679042],[4.2488085,51.9677014],[4.2486339,51.9675284],[4.247989,51.967131],[4.2473198,51.9665892],[4.2470982,51.9659909],[4.2474296,51.9650045],[4.2473962,51.9647516],[4.2472629,51.9645379],[4.2470037,51.9643324],[4.2465923,51.9641528],[4.2463739,51.964088],[4.2455475,51.963941],[4.2453046,51.9639242],[4.2450665,51.963958],[4.2447236,51.9640462],[4.2445407,51.9641142],[4.2443975,51.9642121],[4.2440208,51.9645619],[4.2439601,51.9646306],[4.2433983,51.9654234],[4.2433916,51.9654329],[4.2430808,51.9659006],[4.2430364,51.9659966],[4.2429404,51.9663488],[4.2429718,51.9665731],[4.2431304,51.9668503],[4.2433063,51.9670211],[4.2442954,51.9676217],[4.2446314,51.9681476],[4.2448516,51.9688252],[4.2447979,51.9694474],[4.2443752,51.9699733],[4.2436498,51.9703528],[4.2427405,51.9705236],[4.2417314,51.9704534],[4.2404802,51.970175],[4.239686,51.9698563],[4.2394994,51.9698028],[4.2390695,51.9697228],[4.2388566,51.9697037],[4.2386439,51.9697239],[4.2382875,51.9697923],[4.2380524,51.9698687],[4.2378775,51.9699922],[4.2371221,51.9707789],[4.2370394,51.9709056],[4.236898,51.9712785],[4.2368789,51.9713861],[4.2368845,51.9716916],[4.23649,51.9724039],[4.2364515,51.9725288],[4.2364335,51.9727731],[4.2364623,51.9729202],[4.236567,51.9730537],[4.2368405,51.9732917],[4.2370401,51.9734095],[4.2372965,51.9734728],[4.2377559,51.9735274],[4.2379728,51.9735328],[4.239099,51.9734564],[4.2407613,51.973535],[4.2409546,51.9735281],[4.2414019,51.9734749],[4.2417114,51.9733881],[4.2423535,51.9730791],[4.2425546,51.9729288],[4.2433893,51.9719177],[4.2440231,51.9714499]]]}},{"type":"Feature","properties":{"role":"surface_visible_outer_rim","surface_margin_m":50.0,"part_index":4},"geometry":{"type":"Polygon","coordinates":[[[4.2477843,51.9285263],[4.2462272,51.9275779],[4.2461073,51.927519],[4.2456567,51.9273416],[4.2454461,51.9272853],[4.2452176,51.9272724],[4.244829,51.9272886],[4.2446056,51.9273203],[4.2444092,51.9273934],[4.2440009,51.9276063],[4.2438949,51.9276746],[4.2427927,51.928554],[4.2426792,51.9286845],[4.2424432,51.9291134],[4.2424051,51.9292787],[4.2424674,51.9294412],[4.2426892,51.9297487],[4.2427843,51.9298456],[4.2441719,51.9309234],[4.2443568,51.931025],[4.2445859,51.9310825],[4.2449268,51.9311285],[4.2453146,51.9311151],[4.2457514,51.9310237],[4.2458709,51.930991],[4.246831,51.9306619],[4.2469981,51.9305831],[4.2478213,51.9300627],[4.2479839,51.9299034],[4.2482821,51.9294017],[4.2483179,51.9291774],[4.2482869,51.929055],[4.2481767,51.928878],[4.247882,51.9286001],[4.2477843,51.9285263]]]}},{"type":"Feature","properties":{"role":"surface_visible_outer_rim","surface_margin_m":50.0,"part_index":5},"geometry":{"type":"Polygon","coordinates":[[[4.2419865,51.9513348],[4.2417942,51.9512306],[4.2404721,51.9507372],[4.2403025,51.950691],[4.2398262,51.9506039],[4.2396619,51.9505861],[4.2382772,51.9505366],[4.2377945,51.9504476],[4.237572,51.9504289],[4.2373507,51.950453],[4.2369872,51.95053],[4.2367057,51.9506393],[4.2365323,51.9508145],[4.2363106,51.9512301],[4.2362741,51.9513708],[4.2362741,51.9530666],[4.2363132,51.9532119],[4.2365488,51.9536382],[4.2366786,51.9537808],[4.2368823,51.9538852],[4.237383,51.954058],[4.2375181,51.9540941],[4.2389103,51.9543666],[4.2390971,51.9543872],[4.2394894,51.9543981],[4.2397858,51.954368],[4.2412225,51.9540227],[4.2414751,51.9539204],[4.2416387,51.9537635],[4.241685,51.9535791],[4.2416354,51.9530235],[4.2422206,51.951976],[4.2422605,51.951832],[4.2422235,51.9516878],[4.2421085,51.9514737],[4.2419865,51.9513348]]]}}]}