{"type":"FeatureCollection","name":"proto2-depth-collar","crs":{"type":"name","properties":{"name":"urn:ogc:def:crs:OGC:1.3:CRS84"}},"features":[{"type":"Feature","properties":{"role":"invisible_depth_collar"},"geometry":{"type":"MultiPolygon","coordinates":[[[[4.2981954,52.1984134],[5.1662185,52.2032288],[5.1686106,51.7143455],[4.3099886,51.7095977],[4.2981954,52.1984134]],[[4.8680803,51.9429214],[4.866607,51.9433445],[4.865999,51.9433748],[4.8655881,51.9431054],[4.865304,51.9426433],[4.8653969,51.9421256],[4.8655876,51.9418562],[4.8658914,51.9416684],[4.8665377,51.9414461],[4.8692149,51.9407475],[4.8706834,51.9406096],[4.8718267,51.940245],[4.8723781,51.939966],[4.8728889,51.9398794],[4.8738147,51.9399042],[4.874339,51.9399892],[4.8758988,51.9403573],[4.8766535,51.9406558],[4.8766309,51.9412918],[4.8763309,51.9418627],[4.8759657,51.9422176],[4.8698375,51.9430285],[4.8680803,51.9429214]],[[4.5966454,51.9054692],[4.5966115,51.9047017],[4.5959873,51.9039165],[4.5959737,51.9036851],[4.5970045,51.9026087],[4.5969874,51.9012652],[4.5975219,51.9006769],[4.5982019,51.9001182],[4.6010963,51.8989141],[4.601863,51.8987269],[4.6033556,51.8987974],[4.6045982,51.8986631],[4.6056502,51.8982324],[4.6063359,51.8975774],[4.6066494,51.896676],[4.6072381,51.8963184],[4.6099005,51.8959234],[4.6120636,51.8960866],[4.6131052,51.8959356],[4.614001,51.8955737],[4.6146429,51.8951827],[4.6157898,51.895108],[4.6167907,51.8949105],[4.6185069,51.8944028],[4.6191163,51.894053],[4.6197088,51.8939139],[4.6205559,51.8940263],[4.6217475,51.894795],[4.6231781,51.8970507],[4.623844,51.8978459],[4.624629,51.8982745],[4.6259937,51.8987438],[4.6265374,51.8991318],[4.626957,51.8998732],[4.6276106,51.9005411],[4.6286416,51.9009913],[4.6299244,51.9012549],[4.6304223,51.9014341],[4.6316495,51.9015284],[4.6328382,51.9013174],[4.6337976,51.9008346],[4.6343739,51.9001578],[4.6344565,51.8993032],[4.6346359,51.8990958],[4.6353301,51.8989677],[4.6364161,51.8993239],[4.6375205,51.8994278],[4.6386124,51.8992818],[4.6395488,51.8989049],[4.6402072,51.8983465],[4.6405013,51.8976798],[4.6405762,51.8971314],[4.6417393,51.8964447],[4.6424676,51.8954707],[4.6427365,51.895316],[4.6444074,51.8949938],[4.6452178,51.8946227],[4.6459399,51.8939159],[4.6464167,51.8937495],[4.6499881,51.8938212],[4.6511878,51.893486],[4.6517977,51.8932354],[4.6533361,51.8930377],[4.6538204,51.8931016],[4.6548481,51.8935758],[4.6559243,51.8937489],[4.6570296,51.8936749],[4.658021,51.8933633],[4.6591818,51.892518],[4.66114,51.8923027],[4.663045,51.8927504],[4.6643136,51.8927067],[4.6661563,51.8921049],[4.6679965,51.8923443],[4.6695654,51.8923376],[4.6702968,51.8922153],[4.6723521,51.8923105],[4.6734845,51.8926069],[4.6745964,51.8938302],[4.6753233,51.8992975],[4.6750778,51.9001517],[4.6752166,51.9008497],[4.6757544,51.9014693],[4.6777135,51.9024521],[4.6788334,51.9026749],[4.6804127,51.9025631],[4.6824588,51.9029811],[4.6826647,51.9033596],[4.6827668,51.9043593],[4.6829969,51.9049683],[4.6835325,51.9054986],[4.6844069,51.9061365],[4.6852501,51.9066202],[4.686321,51.9068794],[4.6874709,51.9068784],[4.6885407,51.906617],[4.6892955,51.9061814],[4.6902794,51.9058517],[4.691043,51.9053756],[4.6914933,51.9047655],[4.6916292,51.9038509],[4.6917931,51.9036564],[4.6927422,51.9032103],[4.6941203,51.9029613],[4.6949972,51.9025095],[4.695549,51.9018916],[4.6957002,51.9011919],[4.6955483,51.8998969],[4.6955965,51.8996921],[4.6959229,51.8994808],[4.697506,51.8996448],[4.6987521,51.8996449],[4.6999502,51.8994546],[4.7014701,51.899548],[4.7035518,51.8995153],[4.7039444,51.8994496],[4.704274,51.8994843],[4.7050293,51.8998238],[4.7061516,51.9001314],[4.7073789,51.900144],[4.7085173,51.8998599],[4.7088808,51.8996983],[4.7104832,51.8996836],[4.7120041,51.8992135],[4.7124717,51.8991358],[4.7132458,51.8991881],[4.7144439,51.8991292],[4.7157785,51.8990042],[4.7165291,51.8988573],[4.7179744,51.8990864],[4.719615,51.8989648],[4.7207029,51.8994748],[4.721771,51.8996774],[4.7226007,51.899737],[4.7238688,51.9000267],[4.7252782,51.9007187],[4.7258904,51.9023116],[4.7268796,51.9030104],[4.7277742,51.9039092],[4.7287278,51.9045405],[4.730344,51.9048734],[4.7314461,51.9054509],[4.7332338,51.9058601],[4.7335839,51.906031],[4.7352179,51.9064864],[4.7361402,51.9068517],[4.7412457,51.9077692],[4.74293,51.9078627],[4.7439365,51.9084018],[4.7455765,51.9087596],[4.7466173,51.9098824],[4.7473391,51.9102986],[4.7477658,51.9114304],[4.7483381,51.9119853],[4.749181,51.9123871],[4.7509743,51.9127002],[4.7516207,51.9135054],[4.7525073,51.9140023],[4.7544944,51.9143783],[4.7549725,51.9147888],[4.7559974,51.9153504],[4.7563252,51.9156262],[4.7569097,51.916423],[4.7578082,51.9169165],[4.7587752,51.9171576],[4.7597246,51.9176236],[4.7607883,51.9178227],[4.7624626,51.9177752],[4.7635686,51.9181645],[4.7647514,51.9183421],[4.7658012,51.9187775],[4.7668069,51.9190151],[4.7678833,51.9190248],[4.7694157,51.9187106],[4.7703139,51.9181651],[4.7710451,51.9172605],[4.7717165,51.9172089],[4.7727602,51.9172804],[4.7744755,51.9175244],[4.7749467,51.9180874],[4.7756376,51.9186936],[4.7766498,51.9190915],[4.7783745,51.9193323],[4.7786581,51.9197758],[4.7787982,51.9229205],[4.7791526,51.9239183],[4.7798705,51.9244969],[4.781175,51.924998],[4.7814048,51.9254615],[4.781453,51.9264167],[4.7813617,51.9268347],[4.7811086,51.9270715],[4.7797799,51.9277326],[4.7792877,51.9283132],[4.779094,51.9299402],[4.7784933,51.9307838],[4.7789247,51.9362465],[4.7794534,51.9369193],[4.7803593,51.937415],[4.781504,51.9376576],[4.7826341,51.9377977],[4.7833281,51.937978],[4.7850252,51.9380088],[4.7872195,51.9385277],[4.7885245,51.9384406],[4.7893781,51.9382517],[4.7910079,51.9384341],[4.7922189,51.9382854],[4.793239,51.9378554],[4.7939054,51.9372129],[4.7941117,51.9364605],[4.7940184,51.9340995],[4.7945385,51.9334224],[4.7948382,51.9327648],[4.7947441,51.932084],[4.7945477,51.9316367],[4.7944868,51.9303794],[4.7946106,51.929874],[4.7945036,51.9290156],[4.7937977,51.9282734],[4.7934415,51.9280412],[4.7922146,51.9275515],[4.7905021,51.9274621],[4.7890426,51.9271879],[4.7880034,51.9268797],[4.787786,51.926492],[4.7876854,51.9244796],[4.7877728,51.9241728],[4.7880328,51.9240068],[4.7892709,51.9238196],[4.7900994,51.9238019],[4.7915098,51.9240479],[4.7926802,51.9240636],[4.7937761,51.9238089],[4.7945767,51.9234603],[4.7950272,51.9234412],[4.7958531,51.9235529],[4.7965568,51.9236755],[4.7987926,51.924383],[4.8009724,51.9248602],[4.8021568,51.925587],[4.8035544,51.9259966],[4.804425,51.9261104],[4.8056787,51.9268234],[4.8058244,51.9271936],[4.8051846,51.9298384],[4.8053833,51.9304941],[4.8059346,51.9310676],[4.8065387,51.9314001],[4.8084776,51.932131],[4.8086282,51.9325229],[4.8084758,51.9332774],[4.8085794,51.9340697],[4.8091959,51.9347674],[4.8102185,51.9352495],[4.8114699,51.9354325],[4.8127334,51.9352847],[4.8137903,51.9348319],[4.8141181,51.9346166],[4.8146478,51.9345384],[4.8155874,51.9347396],[4.8159591,51.9348967],[4.8170852,51.9350552],[4.8187403,51.9348347],[4.8210363,51.9349198],[4.8225611,51.9354559],[4.822811,51.9357577],[4.8237244,51.9364234],[4.8250215,51.9367683],[4.8260007,51.9369295],[4.8263537,51.9373748],[4.8264205,51.938003],[4.8260676,51.9386055],[4.8258859,51.9394695],[4.8262173,51.9400657],[4.8264711,51.9413657],[4.8270976,51.9420333],[4.8281005,51.9424933],[4.8293159,51.9426704],[4.8305456,51.9425356],[4.8318996,51.9419824],[4.8324006,51.9419831],[4.8339406,51.9421726],[4.8342587,51.9422717],[4.8344493,51.9424499],[4.8345936,51.9433349],[4.8351015,51.9439839],[4.8359625,51.9444704],[4.8370811,51.9447278],[4.8382387,51.9451483],[4.8393711,51.9452676],[4.8404958,51.945123],[4.8414573,51.9447345],[4.8421227,51.9441557],[4.8425544,51.9427804],[4.8428164,51.9426271],[4.8431504,51.9425871],[4.8436477,51.9426895],[4.8438432,51.9432545],[4.8437704,51.9437279],[4.8439412,51.9448026],[4.8437699,51.9460279],[4.8435339,51.9464089],[4.8432069,51.9464956],[4.8427897,51.9464405],[4.8413881,51.9458242],[4.8402664,51.9456951],[4.8391454,51.9458261],[4.8381777,51.9461997],[4.8374952,51.9467646],[4.8371943,51.9474216],[4.8368325,51.9500762],[4.8370592,51.9514095],[4.8366976,51.9542193],[4.8367985,51.9549055],[4.837287,51.955525],[4.8380994,51.955997],[4.8393906,51.9562946],[4.840142,51.9563357],[4.8410821,51.9562642],[4.8424261,51.9563433],[4.8437573,51.9560614],[4.8443599,51.9560807],[4.8478571,51.9557677],[4.849318,51.9553451],[4.8501394,51.9547214],[4.8504727,51.9539443],[4.8507716,51.9513998],[4.8509748,51.9510338],[4.8512879,51.9509416],[4.8539476,51.9513588],[4.8562145,51.9514815],[4.8570188,51.9513893],[4.8579701,51.951176],[4.859106,51.9505444],[4.859594,51.9505018],[4.8599377,51.9507135],[4.8603546,51.9517427],[4.8611329,51.9523157],[4.8621656,51.9526533],[4.8633238,51.95273],[4.864128,51.9526888],[4.8653788,51.9524532],[4.8661053,51.9522028],[4.8675075,51.951898],[4.8699458,51.9508848],[4.8718724,51.9506783],[4.872686,51.9507355],[4.8729962,51.9508305],[4.8731822,51.9510253],[4.8731605,51.9513221],[4.871799,51.9546362],[4.8714899,51.9549756],[4.8702533,51.955718],[4.8698062,51.9564022],[4.8659237,51.9609934],[4.8656095,51.9616286],[4.8648232,51.9624917],[4.8641927,51.9638669],[4.8630728,51.9649448],[4.8622464,51.9659141],[4.8607205,51.967975],[4.8602081,51.9683593],[4.8592372,51.9687853],[4.8587975,51.9688788],[4.8576268,51.9693286],[4.8493018,51.9743365],[4.8479345,51.9749574],[4.8461478,51.9753755],[4.8452562,51.9757669],[4.8433954,51.9776419],[4.8351466,51.9852053],[4.8347514,51.986114],[4.834074,51.9868015],[4.8280213,51.9914445],[4.8273921,51.9923685],[4.8273037,51.9927784],[4.8270873,51.9930284],[4.8226783,51.9964793],[4.8216844,51.9970673],[4.8213271,51.9974081],[4.8209535,51.9980844],[4.8210086,51.9987981],[4.8214848,51.9994494],[4.8223156,51.999947],[4.8233844,52.0002214],[4.8251593,52.0004154],[4.8279044,52.0008387],[4.8286603,52.0011078],[4.8296564,52.0013328],[4.8308642,52.0013218],[4.8327005,52.0014572],[4.8333203,52.0016454],[4.8345138,52.0018387],[4.8359939,52.0019385],[4.8374921,52.002227],[4.8399987,52.0025345],[4.8415719,52.0028418],[4.8422199,52.0028584],[4.8436178,52.0030383],[4.8451585,52.0033863],[4.8482128,52.0036684],[4.8528969,52.0043445],[4.8561718,52.0052326],[4.8573758,52.0057446],[4.8575041,52.0060767],[4.8573159,52.0064705],[4.8522063,52.0126189],[4.8504628,52.0143547],[4.8486509,52.0166514],[4.8474983,52.0173741],[4.8469713,52.0180325],[4.8466956,52.0182333],[4.846351,52.0182998],[4.8452987,52.0181154],[4.8418779,52.0172145],[4.8409409,52.017047],[4.8336581,52.0166466],[4.831315,52.0166886],[4.828888,52.0168477],[4.8275209,52.0170255],[4.82512,52.0174919],[4.8237515,52.0171984],[4.8219383,52.0163353],[4.8207163,52.0158929],[4.8203317,52.0156235],[4.8197725,52.0146185],[4.819022,52.0141535],[4.8178995,52.0136574],[4.8170354,52.0131428],[4.8161114,52.0127841],[4.815043,52.0126457],[4.8139631,52.0127448],[4.8125882,52.0129742],[4.8106119,52.0138552],[4.8088418,52.0142681],[4.8080687,52.0143612],[4.8074921,52.0143508],[4.8066115,52.0142296],[4.8055109,52.014202],[4.8044644,52.0144139],[4.8036044,52.0148386],[4.8030398,52.0154221],[4.8002668,52.0201317],[4.7994315,52.0209831],[4.7987926,52.0220178],[4.7985598,52.0221594],[4.7981949,52.0222027],[4.7969672,52.0217949],[4.7847778,52.0167354],[4.7807827,52.0154697],[4.7786123,52.0149376],[4.7763897,52.0144905],[4.7739671,52.0141077],[4.7715391,52.0138259],[4.7690856,52.0136503],[4.7667065,52.0135788],[4.7633543,52.0136369],[4.754271,52.0142082],[4.7535821,52.0141197],[4.7534132,52.0139098],[4.7534887,52.0135953],[4.7562922,52.0089667],[4.7565169,52.0079291],[4.7582265,52.0050728],[4.7584352,52.0043296],[4.7581615,52.0035945],[4.7572362,52.0028607],[4.7565214,52.0021185],[4.7556324,52.0017123],[4.7545687,52.001525],[4.7534663,52.0015805],[4.7524659,52.0018719],[4.7518673,52.002136],[4.7504302,52.0024434],[4.7499034,52.0024388],[4.7493853,52.0022916],[4.7479637,52.0021188],[4.7464864,52.0021755],[4.745617,52.0023831],[4.7447883,52.0027041],[4.7437558,52.0028835],[4.7427648,52.0033925],[4.7421957,52.0041065],[4.74206,52.0048206],[4.7418158,52.0050643],[4.7395336,52.0064068],[4.7381907,52.006922],[4.7374543,52.0069954],[4.7368246,52.0066997],[4.7358004,52.0063705],[4.7346519,52.006296],[4.733539,52.0064864],[4.7320781,52.0071586],[4.7312284,52.0072476],[4.7298407,52.0075921],[4.7285839,52.0075044],[4.7258138,52.0066085],[4.7258499,52.0065679],[4.724893,52.0062168],[4.7236249,52.0054944],[4.7225917,52.0051493],[4.7223718,52.0049922],[4.7222951,52.0048521],[4.722517,52.0044329],[4.7230787,52.0038686],[4.7243041,52.003215],[4.7249134,52.0025673],[4.7250723,52.0018248],[4.7247565,52.0011018],[4.7230766,51.9998747],[4.7219408,51.9995504],[4.7210309,51.999419],[4.7198221,51.9990951],[4.7185428,51.9991031],[4.7173782,51.9994299],[4.7151786,52.0003641],[4.713996,52.0004292],[4.7130606,52.0001136],[4.7119812,51.9999701],[4.7108886,52.0000698],[4.7088283,52.0008516],[4.7083248,52.0008261],[4.7078826,52.0005944],[4.7073071,52.0001149],[4.7061792,51.9997398],[4.7053471,51.9990931],[4.7042545,51.9986303],[4.7033996,51.997666],[4.7026312,51.9972603],[4.7020566,51.9970885],[4.7013713,51.9964145],[4.7005473,51.9959761],[4.6994365,51.9957304],[4.6978856,51.9951894],[4.6966055,51.9951242],[4.6951117,51.9954905],[4.6943557,51.9955147],[4.693439,51.9950724],[4.6918775,51.9939353],[4.6908739,51.9935899],[4.689735,51.9934944],[4.6889084,51.9935665],[4.6883658,51.9934527],[4.6878359,51.9930096],[4.6875997,51.9926061],[4.686837,51.9920713],[4.6858099,51.9917463],[4.6846614,51.9916763],[4.6833983,51.9919183],[4.6830757,51.9918863],[4.6822672,51.9913674],[4.682023,51.9910823],[4.6822685,51.9898289],[4.6816935,51.9889772],[4.6811215,51.9885038],[4.6810508,51.9878424],[4.6806544,51.9871767],[4.6798919,51.9866461],[4.679077,51.9863896],[4.6784087,51.9859899],[4.6784185,51.9857096],[4.6800379,51.9845984],[4.6804007,51.983964],[4.6803848,51.9832914],[4.6799922,51.9826638],[4.6795074,51.9821707],[4.6786086,51.9815851],[4.6773985,51.9812808],[4.6760929,51.9813121],[4.6746162,51.9817373],[4.674231,51.9816962],[4.6734218,51.9808651],[4.6720142,51.9801331],[4.671842,51.9798303],[4.6718393,51.9792469],[4.6714234,51.9785915],[4.6706513,51.9780737],[4.669695,51.9777389],[4.6681316,51.9766234],[4.6671137,51.9763112],[4.6659818,51.9762471],[4.6643858,51.9765951],[4.6635569,51.9766731],[4.6630092,51.9766192],[4.6624105,51.9763292],[4.6612662,51.9759332],[4.6596963,51.9758371],[4.6593977,51.975742],[4.6588684,51.97537],[4.6577258,51.974805],[4.6557954,51.9742947],[4.6549887,51.9743152],[4.6542662,51.9741887],[4.654049,51.9737825],[4.6541825,51.97341],[4.6546313,51.9728193],[4.6546919,51.9720838],[4.6537459,51.9704076],[4.6528514,51.9697934],[4.6512967,51.9693652],[4.6499515,51.9693855],[4.6488886,51.9696866],[4.6480827,51.9702101],[4.6474832,51.9707492],[4.6468539,51.9710766],[4.6463074,51.971263],[4.6438571,51.9716088],[4.6429708,51.971379],[4.6416616,51.9711699],[4.6411346,51.9711593],[4.6407206,51.9710476],[4.6403267,51.9708329],[4.6396867,51.9701942],[4.6387362,51.9697681],[4.6375972,51.9695916],[4.6364337,51.9696902],[4.6353772,51.969906],[4.6346562,51.9698653],[4.6338285,51.9695294],[4.6336156,51.9692943],[4.6335885,51.9673455],[4.6338707,51.9670097],[4.6343708,51.9666819],[4.6354065,51.9661765],[4.635867,51.9660562],[4.6370242,51.9659209],[4.6384403,51.9659429],[4.6394631,51.9656961],[4.6402819,51.9652439],[4.6407932,51.9646436],[4.6409968,51.964129],[4.641684,51.9636464],[4.6421938,51.9629279],[4.6422244,51.9620047],[4.6424456,51.9618279],[4.64384,51.9612152],[4.6444596,51.9604111],[4.6448612,51.9595253],[4.6449586,51.958876],[4.6465327,51.9580483],[4.6471802,51.9573343],[4.6472432,51.9568417],[4.6474068,51.9565612],[4.6484769,51.9557161],[4.6490779,51.9544683],[4.6496515,51.9537182],[4.6496878,51.9529791],[4.6492671,51.952287],[4.6480588,51.9514933],[4.6470658,51.9511891],[4.6459628,51.9511211],[4.6450595,51.95127],[4.6445895,51.9512416],[4.6433344,51.9503567],[4.6429027,51.950246],[4.6420536,51.9497933],[4.641868,51.9491337],[4.641018,51.9481859],[4.6409719,51.9466701],[4.6403363,51.945946],[4.6396833,51.9455388],[4.6394715,51.9452481],[4.6394428,51.9449385],[4.6397659,51.9442352],[4.6396793,51.9435921],[4.6392512,51.9430035],[4.6387708,51.9425493],[4.6387928,51.9421735],[4.6377394,51.9388888],[4.6377723,51.9368854],[4.6390556,51.9357876],[4.6393171,51.9353392],[4.6397816,51.9350097],[4.6407816,51.9344309],[4.6418869,51.9336119],[4.6432059,51.9330447],[4.6458069,51.9314363],[4.6464337,51.9308293],[4.6466525,51.9301219],[4.646432,51.9294149],[4.6458037,51.9288084],[4.6448998,51.9282017],[4.6445697,51.927854],[4.6435666,51.9273979],[4.6423538,51.9272236],[4.6411281,51.9273595],[4.6400232,51.9278241],[4.6330245,51.932868],[4.6323488,51.9331321],[4.6304201,51.9327627],[4.6290833,51.9329218],[4.6279869,51.9334207],[4.6266913,51.9343401],[4.6260035,51.9346029],[4.6246398,51.9349549],[4.6242226,51.9348747],[4.6238955,51.9346504],[4.6235721,51.9341945],[4.6235936,51.9339851],[4.6241314,51.9331656],[4.6240945,51.9323739],[4.6234134,51.9313402],[4.6230945,51.9310807],[4.622025,51.930503],[4.6206548,51.9301585],[4.6204038,51.9298702],[4.620691,51.9294914],[4.6210906,51.9291947],[4.6216588,51.9284149],[4.6215813,51.9274684],[4.6218625,51.9270857],[4.6300842,51.9213499],[4.6308286,51.9209791],[4.6315639,51.9204486],[4.6319454,51.9200411],[4.6404529,51.9140482],[4.6410811,51.9133401],[4.6411799,51.9125346],[4.6407315,51.911776],[4.6397985,51.9111926],[4.6364611,51.9101777],[4.635532,51.9098027],[4.635268,51.9094843],[4.6351172,51.9088736],[4.6353839,51.9084032],[4.6355578,51.9077797],[4.6353927,51.9071552],[4.6347382,51.9062922],[4.6342731,51.9053171],[4.6341366,51.905215],[4.6345302,51.9052198],[4.6355711,51.9049923],[4.6367331,51.9044361],[4.6376542,51.9046502],[4.6391819,51.9047723],[4.6402474,51.9045941],[4.6411433,51.9041956],[4.6417555,51.9036276],[4.6420057,51.9029627],[4.6420661,51.9024134],[4.6419258,51.9016661],[4.6413297,51.9010103],[4.6403705,51.9005478],[4.639197,51.9003503],[4.6379913,51.9004484],[4.6369404,51.900827],[4.6358435,51.9015794],[4.6349668,51.9013224],[4.6338558,51.9012125],[4.6327547,51.9013563],[4.6318101,51.9017346],[4.6311474,51.902297],[4.6308545,51.9029691],[4.6309703,51.9036615],[4.6314435,51.9043227],[4.6308999,51.9043184],[4.6301269,51.9044381],[4.6289953,51.9044368],[4.6278175,51.9046618],[4.6256156,51.9048566],[4.6221488,51.9049201],[4.6200883,51.9051432],[4.618556,51.9052186],[4.6179867,51.905195],[4.6168938,51.9047606],[4.6158743,51.9046001],[4.6146212,51.9046951],[4.6134896,51.9050522],[4.6126861,51.9056608],[4.6123466,51.906418],[4.6126039,51.907335],[4.6125147,51.907501],[4.6121938,51.9076644],[4.6115236,51.9076601],[4.6110614,51.9075796],[4.6097362,51.9071776],[4.6084219,51.9071749],[4.6071753,51.9073759],[4.6067414,51.907326],[4.6062807,51.9071421],[4.6040773,51.9056654],[4.6031387,51.9052624],[4.6020274,51.905098],[4.6008956,51.9051949],[4.5998982,51.9055398],[4.5991717,51.9060853],[4.5988157,51.9067569],[4.5987172,51.907221],[4.598059,51.907534],[4.5973036,51.9075266],[4.5963139,51.9070898],[4.5959456,51.9068222],[4.5960066,51.9063544],[4.5966454,51.9054692]]],[[[4.7701109,52.0018061],[4.7699087,52.0024756],[4.7701,52.0031463],[4.7706606,52.0037331],[4.7719751,52.0043148],[4.773009,52.0045285],[4.7740988,52.0045076],[4.7758169,52.0040198],[4.7772359,52.004023],[4.7786643,52.003805],[4.7795989,52.0033765],[4.7802108,52.0027652],[4.7804135,52.0020577],[4.7801782,52.0013541],[4.7796488,52.000765],[4.7793183,51.99976],[4.7796374,51.9993172],[4.7814555,51.9984231],[4.782042,51.9977783],[4.7821876,51.9970442],[4.7818125,51.9962385],[4.781131,51.9955839],[4.7800831,51.9951513],[4.7774047,51.9944085],[4.7759285,51.9944522],[4.7747192,51.9948742],[4.7738155,51.9957599],[4.7735983,51.9964725],[4.7736988,51.9967851],[4.7736271,51.9973459],[4.7720552,51.9997966],[4.7710308,52.0009776],[4.7701109,52.0018061]]],[[[4.7654302,51.9757394],[4.7652942,51.9760344],[4.7652104,51.9768409],[4.7656741,51.9775966],[4.7666026,51.9781662],[4.7678293,51.9784476],[4.7696108,51.9785474],[4.7706242,51.9783433],[4.7714653,51.9779389],[4.7723288,51.9773777],[4.7775488,51.9737853],[4.7781102,51.9732026],[4.7792296,51.9713066],[4.7794192,51.9706086],[4.7791844,51.969916],[4.7785574,51.9693237],[4.7776243,51.9689131],[4.7765132,51.9687404],[4.7750795,51.9686239],[4.7739849,51.9686094],[4.7729507,51.9688314],[4.7721066,51.9692621],[4.7715584,51.9698475],[4.7710716,51.9706842],[4.7705745,51.9711253],[4.7695099,51.9716366],[4.7680454,51.971671],[4.7669155,51.9719991],[4.7657572,51.9728164],[4.7651303,51.9735057],[4.7650091,51.9742926],[4.7653315,51.9748894],[4.7654302,51.9757394]]],[[[4.6905672,51.9280533],[4.6912253,51.9286242],[4.6921722,51.9290099],[4.6932805,51.9291584],[4.6946875,51.9289869],[4.6952646,51.9290321],[4.6974448,51.9295324],[4.6996651,51.9298501],[4.7017027,51.9300202],[4.7031768,51.9302548],[4.706261,51.930472],[4.7074502,51.9302939],[4.7084231,51.9298519],[4.7090477,51.9292131],[4.7092286,51.9284752],[4.7089383,51.9277506],[4.7082209,51.9271503],[4.7071861,51.9267657],[4.7033067,51.92596],[4.7032703,51.9260031],[4.7032177,51.9259396],[4.693963,51.9240105],[4.6928223,51.9239383],[4.6917177,51.9241282],[4.6908012,51.9245541],[4.6901989,51.9251575],[4.6899942,51.9258549],[4.6902867,51.927374],[4.6905672,51.9280533]]]]}}]}