{"type":"FeatureCollection","name":"proto2-surface-depth-collar","crs":{"type":"name","properties":{"name":"urn:ogc:def:crs:OGC:1.3:CRS84"}},"features":[{"type":"Feature","properties":{"role":"surface_invisible_depth_collar","surface_margin_m":50.0},"geometry":{"type":"MultiPolygon","coordinates":[[[[4.2974542,52.1988513],[5.1669475,52.2036748],[5.1693361,51.7139025],[4.3092768,51.7091468],[4.2974542,52.1988513]],[[4.8697662,51.9434757],[4.8682066,51.9433807],[4.8669135,51.9437521],[4.8666655,51.9437925],[4.8660575,51.9438228],[4.8657379,51.9437942],[4.8654698,51.9436831],[4.8650589,51.9434137],[4.8649083,51.943265],[4.8646243,51.9428029],[4.8645814,51.9425938],[4.8646742,51.9420761],[4.8647307,51.9419454],[4.8649214,51.941676],[4.8650734,51.9415384],[4.8653772,51.9413507],[4.8655376,51.9412758],[4.8661839,51.9410534],[4.8662548,51.9410321],[4.868932,51.9403335],[4.8691057,51.9403032],[4.8704561,51.9401764],[4.8714253,51.9398673],[4.8719174,51.9396182],[4.8721858,51.9395325],[4.8726967,51.9394459],[4.8729204,51.9394304],[4.8738462,51.9394552],[4.8739991,51.9394695],[4.8745234,51.9395545],[4.8745985,51.9395694],[4.8761582,51.9399375],[4.8762908,51.9399788],[4.8770455,51.9402773],[4.8772277,51.9403802],[4.8773438,51.9405148],[4.8773804,51.9406657],[4.8773578,51.9413017],[4.8773224,51.9414306],[4.8770224,51.9420015],[4.8769445,51.9421038],[4.8765793,51.9424588],[4.876381,51.9425866],[4.8761179,51.9426571],[4.8699897,51.9434679],[4.8697662,51.9434757]],[[4.595343,51.9061712],[4.5959146,51.9053794],[4.5958895,51.904812],[4.5953352,51.9041148],[4.5952613,51.9039327],[4.5952478,51.9037013],[4.5953487,51.903456],[4.5962764,51.9024872],[4.596261,51.9012688],[4.5963541,51.901045],[4.5968886,51.9004567],[4.5969415,51.9004066],[4.5976216,51.8998478],[4.5977966,51.8997452],[4.6006909,51.8985412],[4.6008296,51.8984961],[4.6015963,51.8983088],[4.6019183,51.8982788],[4.6033202,51.8983451],[4.6043237,51.8982365],[4.6051229,51.8979093],[4.6056537,51.8974022],[4.6059393,51.8965815],[4.6061405,51.8963553],[4.6067292,51.8959977],[4.6070687,51.8958814],[4.6097311,51.8954864],[4.6099884,51.8954773],[4.6120236,51.8956309],[4.612815,51.8955161],[4.6135432,51.8952219],[4.6141333,51.8948625],[4.6143328,51.8947764],[4.6145669,51.8947357],[4.6156399,51.8946658],[4.6165224,51.8944918],[4.6180939,51.8940269],[4.6186223,51.8937236],[4.6188584,51.8936328],[4.619451,51.8934937],[4.6198611,51.8934745],[4.6207082,51.8935869],[4.6209096,51.8936338],[4.6210801,51.8937152],[4.6222717,51.8944839],[4.6224237,51.8946308],[4.6238405,51.8968647],[4.6244265,51.8975645],[4.6250507,51.8979054],[4.6263467,51.8983511],[4.6265425,51.8984494],[4.6270862,51.8988374],[4.6272231,51.8989833],[4.6276176,51.8996805],[4.6281535,51.9002281],[4.6289726,51.9005858],[4.6301533,51.9008284],[4.6302899,51.9008664],[4.6306593,51.9009995],[4.6315918,51.9010712],[4.632495,51.9009108],[4.633224,51.9005439],[4.633658,51.9000342],[4.6337313,51.8992764],[4.6338159,51.8990912],[4.6339953,51.8988838],[4.6341765,51.8987477],[4.6344284,51.898665],[4.6351226,51.898537],[4.6354018,51.8985205],[4.6356703,51.8985706],[4.6366473,51.898891],[4.6374976,51.898971],[4.6383282,51.89886],[4.6390407,51.8985733],[4.6395415,51.8981485],[4.6397829,51.8976011],[4.6398524,51.8970935],[4.639921,51.8969373],[4.6400747,51.8968062],[4.641138,51.8961785],[4.6418084,51.895282],[4.641973,51.8951416],[4.6422419,51.8949869],[4.6425205,51.8948869],[4.644074,51.8945874],[4.6446764,51.8943115],[4.6453258,51.8936758],[4.645583,51.8935246],[4.6460598,51.8933581],[4.6464402,51.8933003],[4.649843,51.8933686],[4.6508351,51.8930914],[4.6513959,51.892861],[4.6516501,51.8927953],[4.6531884,51.8925977],[4.6534875,51.8925982],[4.6539719,51.8926621],[4.6542547,51.8927413],[4.6551685,51.8931629],[4.6559784,51.8932933],[4.6568193,51.8932369],[4.6575619,51.8930035],[4.6586282,51.8922271],[4.6588201,51.8921283],[4.6590547,51.8920755],[4.6610129,51.8918603],[4.6613978,51.8918826],[4.6631587,51.8922963],[4.6641148,51.8922635],[4.6658172,51.8917075],[4.6660555,51.8916599],[4.6663058,51.8916651],[4.6680695,51.8918946],[4.6694665,51.8918886],[4.6701073,51.8917815],[4.670351,51.8917672],[4.6724063,51.8918624],[4.672635,51.8918966],[4.6737674,51.8921929],[4.6739685,51.8922717],[4.6741176,51.8923866],[4.6752295,51.89361],[4.6753203,51.8937933],[4.6760473,51.8992606],[4.6760385,51.8993762],[4.6758121,51.9001638],[4.675921,51.9007114],[4.6763255,51.9011772],[4.6780654,51.90205],[4.6789065,51.9022174],[4.6803301,51.9021166],[4.6806406,51.9021364],[4.6826867,51.9025543],[4.6829711,51.9026624],[4.6831474,51.9028377],[4.6833533,51.9032162],[4.6833899,51.9033313],[4.683488,51.9042936],[4.6836769,51.9047934],[4.6841207,51.9052328],[4.6849329,51.9058253],[4.6856431,51.9062327],[4.6864576,51.9064299],[4.6873322,51.9064291],[4.6881457,51.9062303],[4.6887999,51.9058528],[4.6889494,51.9057863],[4.689839,51.9054881],[4.690436,51.905116],[4.6907812,51.9046483],[4.6909058,51.9038097],[4.6909849,51.9036432],[4.6911488,51.9034487],[4.6913536,51.9032985],[4.6923027,51.9028525],[4.6925385,51.9027789],[4.6937715,51.9025561],[4.6944273,51.9022183],[4.694847,51.9017482],[4.6949703,51.9011783],[4.6948237,51.8999293],[4.6948294,51.8998321],[4.6948776,51.8996274],[4.6949435,51.8994952],[4.6950713,51.8993816],[4.6953977,51.8991703],[4.6956936,51.8990544],[4.6960429,51.8990376],[4.6975665,51.8991954],[4.6986603,51.8991955],[4.6997696,51.8990194],[4.700022,51.8990074],[4.7014968,51.899098],[4.7034463,51.8990674],[4.7037548,51.8990158],[4.7040663,51.8990066],[4.7043959,51.8990413],[4.704701,51.8991207],[4.705394,51.8994322],[4.7063111,51.8996836],[4.7072438,51.8996932],[4.7081642,51.8994634],[4.7084568,51.8993334],[4.7086529,51.8992715],[4.70887,51.8992489],[4.7103067,51.8992358],[4.7116795,51.8988115],[4.7118155,51.8987795],[4.7122831,51.8987018],[4.7125506,51.898689],[4.7132566,51.8987368],[4.7143607,51.8986824],[4.7156136,51.8985652],[4.71631,51.8984289],[4.7167094,51.898422],[4.7180231,51.8986302],[4.7195285,51.8985186],[4.719805,51.898531],[4.7200538,51.8986066],[4.721039,51.8990685],[4.7219207,51.8992357],[4.7226844,51.8992906],[4.7228523,51.8993154],[4.7241204,51.8996051],[4.7243203,51.8996746],[4.7257297,51.9003666],[4.7258911,51.9004774],[4.725985,51.9006147],[4.7265556,51.9020993],[4.7274262,51.9027143],[4.7274983,51.9027748],[4.7283546,51.9036353],[4.7291325,51.9041502],[4.7305736,51.904447],[4.7308138,51.9045305],[4.7318182,51.9050569],[4.733486,51.9054386],[4.7336841,51.9055073],[4.7339638,51.905644],[4.7355164,51.9060767],[4.7356097,51.9061079],[4.7364437,51.9064383],[4.7413808,51.9073255],[4.742995,51.907415],[4.7432141,51.9074491],[4.7434057,51.907523],[4.7443081,51.9080064],[4.7458183,51.9083358],[4.7460417,51.9084144],[4.7462069,51.9085361],[4.7471931,51.9096],[4.7478345,51.9099699],[4.7479679,51.9100734],[4.7480467,51.9101965],[4.7484453,51.9112535],[4.7488824,51.9116773],[4.7495136,51.9119781],[4.7511717,51.9122676],[4.7514383,51.9123543],[4.7516252,51.9125004],[4.7522105,51.9132295],[4.7528751,51.913602],[4.754707,51.9139486],[4.7549177,51.9140131],[4.7550841,51.9141157],[4.755515,51.9144856],[4.7564793,51.9150141],[4.756583,51.9150842],[4.7569108,51.9153599],[4.756987,51.9154405],[4.7575077,51.9161504],[4.7581968,51.9165288],[4.759047,51.9167408],[4.7592271,51.9168056],[4.7600679,51.9172184],[4.7608795,51.9173703],[4.7624293,51.9173262],[4.7628221,51.9173847],[4.7638393,51.9177427],[4.7649228,51.9179054],[4.7651561,51.9179689],[4.7661376,51.9183759],[4.7669461,51.9185668],[4.7677712,51.9185743],[4.7690267,51.9183169],[4.7697181,51.917897],[4.7703951,51.9170595],[4.7705344,51.9169408],[4.770728,51.9168562],[4.7709556,51.9168146],[4.771627,51.916763],[4.7717964,51.9167623],[4.7728401,51.9168337],[4.7729231,51.9168424],[4.7746385,51.9170864],[4.7749209,51.9171692],[4.775121,51.9173179],[4.7755694,51.9178536],[4.7761488,51.9183621],[4.7769331,51.9186703],[4.7785345,51.9188939],[4.7788472,51.9189909],[4.7790503,51.919167],[4.7793339,51.9196106],[4.7793846,51.9197634],[4.7795229,51.9228656],[4.7798279,51.9237242],[4.7803666,51.9241584],[4.7815587,51.9246163],[4.7817509,51.9247239],[4.7818699,51.9248663],[4.7820998,51.9253297],[4.7821313,51.9254475],[4.7821795,51.9264026],[4.7821733,51.9264768],[4.782082,51.9268949],[4.7819681,51.9270825],[4.781715,51.9273193],[4.7815643,51.9274216],[4.7803535,51.9280241],[4.7800016,51.9284392],[4.7798189,51.9299732],[4.7797593,51.9301213],[4.7792277,51.9308678],[4.7796436,51.9361329],[4.780044,51.9366422],[4.7807326,51.937019],[4.7816942,51.9372229],[4.782777,51.9373571],[4.7829159,51.9373834],[4.7834849,51.9375313],[4.7850465,51.9375596],[4.785285,51.9375891],[4.7873156,51.9380693],[4.7883607,51.9379995],[4.789133,51.9378286],[4.7895075,51.9378095],[4.7910016,51.9379766],[4.7919317,51.9378624],[4.792707,51.9375357],[4.7932134,51.9370476],[4.7933831,51.9364281],[4.7932916,51.9341105],[4.7933616,51.9339068],[4.7938555,51.933264],[4.7941026,51.9327216],[4.7940253,51.9321627],[4.793846,51.9317544],[4.7938211,51.9316501],[4.7937602,51.9303928],[4.793768,51.9303121],[4.7938795,51.9298574],[4.7937917,51.9291538],[4.7932131,51.9285454],[4.7929739,51.9283896],[4.7919727,51.9279899],[4.7904409,51.92791],[4.7902908,51.9278921],[4.7888313,51.9276179],[4.7887282,51.9275931],[4.787689,51.9272849],[4.787461,51.927179],[4.7873166,51.927027],[4.7870992,51.9266393],[4.7870594,51.9265059],[4.786959,51.9244935],[4.7869696,51.9244017],[4.787057,51.9240949],[4.7871254,51.9239685],[4.7872508,51.9238601],[4.7875107,51.9236941],[4.7878601,51.9235703],[4.7890981,51.923383],[4.7892457,51.9233705],[4.7900743,51.9233528],[4.7902968,51.9233694],[4.7916181,51.9235999],[4.7925558,51.9236124],[4.7934335,51.9234084],[4.7941583,51.9230928],[4.794527,51.923012],[4.7949774,51.9229929],[4.7951826,51.9230022],[4.7960084,51.9231139],[4.7960501,51.9231203],[4.7967538,51.9232429],[4.796888,51.9232755],[4.7990808,51.9239694],[4.8012149,51.9244365],[4.8014845,51.9245412],[4.8025807,51.9252139],[4.8037884,51.9255679],[4.8045752,51.9256707],[4.8049172,51.9257796],[4.8061709,51.9264926],[4.806385,51.9267172],[4.8065307,51.9270873],[4.8065433,51.92726],[4.8059217,51.92983],[4.8060741,51.930333],[4.8065021,51.9307782],[4.8069732,51.9310375],[4.8088561,51.9317472],[4.8090658,51.9318669],[4.8091849,51.9320271],[4.8093354,51.932419],[4.8093495,51.9325786],[4.8092065,51.9332872],[4.8092916,51.9339382],[4.8097599,51.9344681],[4.8105364,51.9348342],[4.8114867,51.9349732],[4.8124462,51.934861],[4.8133133,51.9344894],[4.8135887,51.9343086],[4.8139493,51.9341794],[4.814479,51.9341013],[4.8148857,51.9341138],[4.8158253,51.9343149],[4.8159978,51.9343686],[4.8162554,51.9344775],[4.8170895,51.934595],[4.818587,51.9343954],[4.8187837,51.9343861],[4.8210797,51.9344712],[4.8213957,51.9345292],[4.8229206,51.9350652],[4.8232085,51.9352511],[4.8234199,51.9355067],[4.8241685,51.9360522],[4.8252601,51.9363425],[4.8261879,51.9364953],[4.8264622,51.9365823],[4.8266536,51.9367317],[4.8270066,51.937177],[4.8270793,51.9373453],[4.8271461,51.9379736],[4.8271041,51.938156],[4.8267784,51.9387122],[4.8266289,51.9394231],[4.826905,51.9399197],[4.8269391,51.9400119],[4.8271751,51.9412202],[4.8276513,51.9417277],[4.8284134,51.9420772],[4.8293367,51.9422117],[4.8302704,51.9421093],[4.8314986,51.9416075],[4.8319011,51.941533],[4.8324021,51.9415336],[4.8325426,51.9415423],[4.8340826,51.9417318],[4.834268,51.9417714],[4.834586,51.9418705],[4.8348651,51.9420238],[4.8350558,51.9422019],[4.8351728,51.9424048],[4.8353043,51.9432108],[4.8356953,51.9437105],[4.8363488,51.9440797],[4.8373349,51.9443066],[4.8374496,51.9443403],[4.8384922,51.9447191],[4.8393576,51.9448103],[4.840213,51.9447003],[4.8409443,51.9444048],[4.8414389,51.9439747],[4.8418404,51.9426949],[4.8419169,51.9425641],[4.8420545,51.9424541],[4.8423166,51.9423008],[4.8426781,51.9421859],[4.843012,51.9421459],[4.8433801,51.9421607],[4.8438774,51.9422631],[4.8440979,51.9423366],[4.844265,51.942452],[4.8443589,51.9425955],[4.8445543,51.9431605],[4.8445671,51.943297],[4.844501,51.9437271],[4.8446649,51.9447586],[4.8446658,51.9448412],[4.8444945,51.9460666],[4.8444491,51.9461886],[4.8442131,51.9465696],[4.8440583,51.9467203],[4.8438205,51.9468219],[4.8434935,51.9469086],[4.8432775,51.9469429],[4.8430551,51.946935],[4.8426379,51.94688],[4.8423681,51.9468067],[4.8410971,51.9462479],[4.8402673,51.9461523],[4.8394148,51.946252],[4.8386787,51.9465361],[4.8381583,51.9469669],[4.8379132,51.9475024],[4.8375631,51.9500715],[4.8377826,51.9513626],[4.8377842,51.9514452],[4.8374276,51.9542168],[4.8375108,51.9547828],[4.8378824,51.9552541],[4.8384909,51.9556076],[4.8395527,51.9558523],[4.8401294,51.9558839],[4.8409932,51.9558181],[4.8411511,51.9558168],[4.8423388,51.9558867],[4.8435214,51.9556362],[4.843795,51.9556126],[4.8443264,51.9556296],[4.8476462,51.9553325],[4.8488588,51.9549816],[4.8494763,51.9545128],[4.8497521,51.9538698],[4.8500463,51.9513672],[4.8500837,51.9512539],[4.8502869,51.9508879],[4.850432,51.9507346],[4.8506621,51.9506281],[4.8509752,51.9505359],[4.8512168,51.9504944],[4.8514668,51.9505061],[4.8540695,51.9509142],[4.8561793,51.9510285],[4.8568272,51.9509542],[4.8575889,51.9507834],[4.8586195,51.9502104],[4.8587985,51.9501371],[4.8590043,51.9500994],[4.8594923,51.9500568],[4.859824,51.9500755],[4.8601074,51.9501835],[4.8604511,51.9503952],[4.8606431,51.9506044],[4.8610195,51.9515331],[4.8615987,51.9519596],[4.8623821,51.9522156],[4.8633325,51.9522786],[4.8639903,51.9522449],[4.8650925,51.9520373],[4.865751,51.9518103],[4.865864,51.9517788],[4.8671786,51.951493],[4.8695399,51.9505119],[4.8698216,51.950442],[4.8717482,51.9502356],[4.8719545,51.9502318],[4.8727681,51.9502889],[4.8730091,51.9503328],[4.8733193,51.9504279],[4.8736227,51.9506022],[4.8738087,51.9507971],[4.8739087,51.9510457],[4.873887,51.9513425],[4.8738655,51.9514327],[4.8725041,51.9547468],[4.872433,51.9548566],[4.8721239,51.955196],[4.8719969,51.9552979],[4.8708702,51.9559742],[4.8704808,51.9565705],[4.8704509,51.9566103],[4.8665997,51.9611646],[4.8663052,51.9617599],[4.8662435,51.961849],[4.8654996,51.9626656],[4.8648926,51.9639894],[4.8648049,51.9641097],[4.863702,51.9651713],[4.8628996,51.9661124],[4.8613822,51.9681619],[4.8612822,51.9682606],[4.8607698,51.968645],[4.8606295,51.9687257],[4.8596585,51.9691516],[4.8594742,51.9692101],[4.8591121,51.9692872],[4.8580781,51.9696845],[4.8498096,51.9746584],[4.8497328,51.9746985],[4.8483654,51.9753194],[4.8481923,51.9753776],[4.8464932,51.9757752],[4.8457989,51.97608],[4.8440158,51.9778767],[4.843999,51.9778929],[4.8358181,51.9853942],[4.8354544,51.9862306],[4.8353732,51.9863476],[4.8346958,51.9870351],[4.834641,51.9870833],[4.8286526,51.991677],[4.8281009,51.9924873],[4.8280253,51.9928377],[4.8279458,51.9929902],[4.8277294,51.9932402],[4.8276589,51.9933067],[4.82325,51.9967577],[4.823182,51.9968038],[4.8222495,51.9973554],[4.8219872,51.9976057],[4.8216874,51.9981485],[4.8217293,51.9986912],[4.8220915,51.9991865],[4.8227232,51.9995649],[4.8235902,51.9997876],[4.8252863,51.9999729],[4.8253357,51.9999794],[4.8280808,52.0004027],[4.8282682,52.0004495],[4.8289696,52.0006992],[4.8297802,52.0008822],[4.8308535,52.0008724],[4.8309506,52.0008756],[4.8327868,52.001011],[4.8330219,52.0010539],[4.833576,52.0012222],[4.8346464,52.0013956],[4.836073,52.0014918],[4.8362108,52.0015095],[4.8376721,52.0017909],[4.8401407,52.0020938],[4.8402185,52.0021061],[4.8416991,52.0023953],[4.8422501,52.0024094],[4.8423685,52.0024185],[4.8437664,52.0025983],[4.843868,52.0026163],[4.8453394,52.0029486],[4.8483205,52.0032239],[4.8483787,52.0032308],[4.8530628,52.0039069],[4.8531899,52.0039331],[4.8564648,52.0048212],[4.856585,52.0048626],[4.8577889,52.0053746],[4.8579765,52.0054906],[4.8580841,52.0056404],[4.8582124,52.0059725],[4.8582025,52.0062038],[4.8580144,52.0065976],[4.8579639,52.0066756],[4.8528544,52.012824],[4.8528254,52.0128557],[4.8511014,52.014572],[4.8493058,52.0168481],[4.8491701,52.0169665],[4.8480996,52.0176379],[4.8476244,52.0182315],[4.8475273,52.0183229],[4.8472515,52.0185238],[4.8469129,52.0186623],[4.8465683,52.0187287],[4.846152,52.0187321],[4.8450997,52.0185477],[4.8450128,52.0185287],[4.8416327,52.0176385],[4.840806,52.0174908],[4.8336362,52.0170966],[4.8313641,52.0171374],[4.8290019,52.0172921],[4.8277059,52.0174607],[4.8253386,52.0179205],[4.8251092,52.0179413],[4.8248808,52.0179163],[4.8235123,52.0176229],[4.8233066,52.0175542],[4.82153,52.0167085],[4.8203477,52.0162805],[4.8201698,52.0161899],[4.8197851,52.0159205],[4.8196428,52.0157693],[4.819138,52.0148622],[4.8185486,52.0144971],[4.8174754,52.0140228],[4.8173938,52.0139808],[4.8165839,52.0134984],[4.815834,52.0132074],[4.815021,52.0131021],[4.8141121,52.0131856],[4.8129068,52.0133866],[4.8110384,52.0142195],[4.8108694,52.0142756],[4.8090993,52.0146885],[4.8089813,52.0147092],[4.8082082,52.0148023],[4.8080474,52.0148104],[4.8074709,52.0148001],[4.8073335,52.0147894],[4.8065167,52.014677],[4.805613,52.0146544],[4.8048167,52.0148155],[4.8041622,52.0151387],[4.8037006,52.0156157],[4.8009514,52.0202851],[4.8008899,52.0203643],[4.8000887,52.0211811],[4.7994734,52.0221778],[4.7993042,52.0223377],[4.7990714,52.0224794],[4.7986974,52.0226007],[4.7983324,52.022644],[4.7980845,52.0226469],[4.7978495,52.0225984],[4.7966218,52.0221905],[4.7965606,52.0221678],[4.7844068,52.017123],[4.7804812,52.0158794],[4.7783647,52.0153605],[4.7761863,52.0149223],[4.7738093,52.0145467],[4.7714297,52.0142705],[4.7690258,52.0140984],[4.766699,52.0140286],[4.7634015,52.0140857],[4.7543448,52.0146554],[4.7541225,52.0146482],[4.7534335,52.0145597],[4.7531368,52.0144754],[4.7529297,52.0143196],[4.7527608,52.0141097],[4.7526937,52.01398],[4.7526927,52.0138439],[4.7527683,52.0135294],[4.7528064,52.013438],[4.7555813,52.0088569],[4.755795,52.0078696],[4.7558338,52.0077733],[4.7575204,52.0049556],[4.7576927,52.0043421],[4.7574879,52.0037921],[4.7566616,52.0031367],[4.7566103,52.0030903],[4.7559704,52.0024259],[4.7553055,52.002122],[4.7544962,52.0019795],[4.7536574,52.0020218],[4.752836,52.002261],[4.7522908,52.0025016],[4.7521056,52.0025607],[4.7506685,52.002868],[4.75042,52.0028928],[4.7498932,52.0028882],[4.7495989,52.0028471],[4.7491595,52.0027222],[4.7479152,52.0025709],[4.746644,52.0026198],[4.7459449,52.0027867],[4.7451753,52.0030848],[4.7449856,52.0031368],[4.7441024,52.0032901],[4.7433498,52.0036767],[4.7429043,52.0042355],[4.7427832,52.004873],[4.7426792,52.0050571],[4.742435,52.0053008],[4.7423182,52.0053896],[4.740036,52.0067321],[4.7399181,52.0067885],[4.7385752,52.0073037],[4.7383068,52.0073657],[4.7375703,52.0074391],[4.7372775,52.0074313],[4.7370133,52.007353],[4.7364331,52.0070805],[4.7355866,52.0068084],[4.7347132,52.0067518],[4.7338649,52.006897],[4.7325134,52.0075188],[4.7321999,52.0076017],[4.7314276,52.0076826],[4.7301125,52.0080091],[4.7297589,52.0080386],[4.728502,52.0079509],[4.728246,52.0079025],[4.7254758,52.0070066],[4.7252525,52.0068948],[4.7252228,52.0068606],[4.7245208,52.0066031],[4.724399,52.0065471],[4.723198,52.0058628],[4.7222451,52.0055445],[4.7220408,52.0054431],[4.7218209,52.0052861],[4.721682,52.0051361],[4.7216053,52.004996],[4.721567,52.0048544],[4.7216029,52.0047126],[4.7218248,52.0042934],[4.7218966,52.0041977],[4.7224582,52.0036334],[4.7226025,52.0035286],[4.7237356,52.0029242],[4.7242106,52.0024193],[4.7243313,52.0018551],[4.7240957,52.0013154],[4.7226246,52.0002408],[4.7217026,51.9999775],[4.720865,51.9998566],[4.7207409,51.9998312],[4.7196744,51.9995455],[4.718704,51.9995515],[4.717738,51.9998226],[4.7155912,52.0007343],[4.7152433,52.0008117],[4.7140608,52.0008768],[4.7138472,52.0008692],[4.7136467,52.0008235],[4.712804,52.0005392],[4.711957,52.0004266],[4.7111428,52.0005009],[4.7092096,52.0012344],[4.7089976,52.0012887],[4.7087688,52.0012995],[4.7082653,52.001274],[4.7080461,52.0012413],[4.7078536,52.0011687],[4.7074114,52.000937],[4.7072976,52.0008619],[4.7068187,52.000463],[4.7058338,52.0001354],[4.7056091,52.0000193],[4.704845,51.9994255],[4.7038426,51.9990009],[4.7036159,51.998846],[4.7028249,51.997954],[4.7022294,51.9976395],[4.7017393,51.997493],[4.70144,51.9973274],[4.7008131,51.9967107],[4.7001745,51.9963711],[4.6991909,51.9961535],[4.6990782,51.9961216],[4.6976665,51.9956291],[4.6967157,51.9955807],[4.6953805,51.9959081],[4.6951495,51.9959393],[4.6943934,51.9959635],[4.6941364,51.9959432],[4.6939072,51.9958687],[4.6929906,51.9954264],[4.6928837,51.9953629],[4.6914076,51.9942881],[4.6906396,51.9940238],[4.689737,51.9939481],[4.6890103,51.9940115],[4.6886741,51.993992],[4.6881314,51.9938781],[4.6879361,51.9938155],[4.6877801,51.9937196],[4.6872502,51.9932766],[4.6871512,51.9931623],[4.686962,51.992839],[4.6863819,51.9924323],[4.6856008,51.9921851],[4.6847365,51.9921325],[4.6836141,51.9923475],[4.6832827,51.992362],[4.6829601,51.99233],[4.6827382,51.9922844],[4.6825511,51.9921978],[4.6817425,51.9916789],[4.6816237,51.9915774],[4.6813795,51.9912924],[4.6813073,51.9911641],[4.6813004,51.9910284],[4.6815228,51.9898925],[4.6810562,51.9892014],[4.6805379,51.9887725],[4.6803951,51.9885334],[4.6803314,51.9879367],[4.6800187,51.9874114],[4.6794386,51.9870079],[4.6787465,51.98679],[4.6785706,51.9867124],[4.6779022,51.9863126],[4.6777355,51.9861606],[4.677681,51.9859802],[4.6776908,51.9857],[4.6777419,51.9855441],[4.6778775,51.9854091],[4.6793999,51.9843643],[4.6796711,51.9838901],[4.679659,51.9833783],[4.6793366,51.9828629],[4.6789256,51.9824449],[4.6781885,51.9819647],[4.6772697,51.9817337],[4.6762677,51.9817577],[4.6749238,51.9821447],[4.6747124,51.9821828],[4.6744922,51.9821802],[4.6741069,51.982139],[4.6738199,51.982067],[4.6736072,51.9819277],[4.6728604,51.9811608],[4.6715454,51.9804768],[4.6713276,51.980282],[4.6711554,51.9799792],[4.6711142,51.9798316],[4.6711119,51.9793324],[4.6707957,51.978834],[4.6701933,51.9784299],[4.6693361,51.9781299],[4.6691448,51.978033],[4.6676771,51.9769858],[4.6669118,51.9767511],[4.6660739,51.9767036],[4.664628,51.9770189],[4.6644955,51.9770393],[4.6636667,51.9771174],[4.6634422,51.9771169],[4.6628945,51.9770629],[4.6625602,51.9769728],[4.6620056,51.9767043],[4.6610431,51.9763712],[4.6596245,51.9762843],[4.6593626,51.9762365],[4.659064,51.9761413],[4.658851,51.9760386],[4.6583639,51.9756962],[4.6573483,51.975194],[4.6556607,51.9747479],[4.6550186,51.9747642],[4.6547902,51.9747476],[4.6540678,51.9746211],[4.6537627,51.9745132],[4.6535752,51.9743297],[4.653358,51.9739235],[4.6533385,51.9736854],[4.6534719,51.9733129],[4.6535237,51.973219],[4.6539119,51.9727083],[4.653958,51.9721487],[4.653107,51.9706409],[4.6524139,51.970165],[4.6511503,51.9698169],[4.6501188,51.9698325],[4.6493194,51.970059],[4.6486498,51.9704939],[4.648083,51.9710036],[4.647952,51.9710929],[4.6473227,51.9714203],[4.6472057,51.97147],[4.6466592,51.9716564],[4.6464695,51.9717011],[4.6440191,51.9720469],[4.6437942,51.9720565],[4.6435754,51.9720232],[4.6427377,51.9718059],[4.6415574,51.9716174],[4.6411109,51.9716085],[4.6408436,51.9715712],[4.6404295,51.9714595],[4.6402391,51.9713845],[4.6398452,51.9711698],[4.639708,51.9710694],[4.6391433,51.970506],[4.6384226,51.9701828],[4.6375567,51.9700487],[4.6365988,51.9701298],[4.6356058,51.9703327],[4.6353109,51.9703536],[4.6345899,51.9703129],[4.6342567,51.9702409],[4.633429,51.969905],[4.6331934,51.9697487],[4.6329805,51.9695136],[4.6328881,51.9692981],[4.632861,51.9673493],[4.6329429,51.9671385],[4.633225,51.9668027],[4.6333412,51.9667016],[4.6338413,51.9663737],[4.6339198,51.9663293],[4.6349554,51.9658239],[4.6351231,51.9657626],[4.6355836,51.9656423],[4.6357316,51.9656147],[4.6368888,51.9654793],[4.6370425,51.9654717],[4.638312,51.9654914],[4.6390761,51.965307],[4.6396991,51.9649629],[4.6401077,51.9644832],[4.6402901,51.9640223],[4.6404506,51.9638323],[4.6410631,51.963402],[4.6414694,51.9628293],[4.641497,51.9619956],[4.6415384,51.9618552],[4.6416487,51.96173],[4.6418699,51.9615532],[4.6420239,51.9614616],[4.6432644,51.9609166],[4.6437759,51.9602528],[4.6441429,51.9594433],[4.6442343,51.9588344],[4.6443131,51.9586688],[4.6444872,51.9585338],[4.6459619,51.9577584],[4.6464676,51.9572007],[4.6465181,51.9568063],[4.6465589,51.9566893],[4.6467225,51.9564088],[4.646834,51.9562843],[4.6478192,51.9555063],[4.6483807,51.9543401],[4.6484203,51.9542763],[4.6489291,51.9536109],[4.6489564,51.9530541],[4.6486375,51.9525293],[4.6476187,51.9518601],[4.6468616,51.9516282],[4.6460223,51.9515763],[4.6452471,51.9517042],[4.6449886,51.9517173],[4.6445187,51.9516889],[4.6442573,51.9516414],[4.6440426,51.9515379],[4.642899,51.9507316],[4.642624,51.9506611],[4.6424277,51.9505863],[4.6415785,51.9501335],[4.6414208,51.9500148],[4.6413371,51.9498703],[4.6411725,51.9492853],[4.6403819,51.9484037],[4.6402909,51.9481943],[4.6402482,51.9467881],[4.6397466,51.9462167],[4.6391668,51.9458551],[4.6390202,51.9457232],[4.6388084,51.9454326],[4.6387455,51.9452739],[4.6387167,51.9449643],[4.6387432,51.9448158],[4.6390303,51.944191],[4.638965,51.9437061],[4.6386113,51.9432199],[4.6381621,51.9427952],[4.6380703,51.9426698],[4.6380442,51.9425331],[4.6380631,51.9422095],[4.6370262,51.9389762],[4.6370123,51.9388843],[4.6370453,51.9368808],[4.6370818,51.9367449],[4.637183,51.9366222],[4.6384064,51.9355757],[4.6386332,51.9351868],[4.6387689,51.935044],[4.6392333,51.9347145],[4.6392846,51.9346817],[4.6402521,51.9341217],[4.6413287,51.933324],[4.6414718,51.933243],[4.6427376,51.9326987],[4.6452368,51.9311533],[4.6457458,51.9306602],[4.6459123,51.9301223],[4.6457447,51.9295846],[4.6452259,51.9290839],[4.6443651,51.9285062],[4.6442729,51.9284292],[4.6440185,51.9281613],[4.6432564,51.9278147],[4.6423348,51.9276822],[4.6414089,51.9277849],[4.6405119,51.9281621],[4.6335762,51.9331606],[4.633413,51.9332478],[4.6327374,51.933512],[4.6324443,51.9335777],[4.6321337,51.9335614],[4.6303789,51.9332253],[4.629382,51.933344],[4.6284826,51.9337532],[4.6272395,51.9346354],[4.6270736,51.9347225],[4.6263857,51.9349852],[4.6262836,51.9350177],[4.6249199,51.9353696],[4.6246739,51.9354038],[4.6244238,51.935384],[4.6240067,51.9353038],[4.6236827,51.9351756],[4.6233555,51.9349513],[4.6232296,51.9348308],[4.6229063,51.934375],[4.6228465,51.9341662],[4.622868,51.9339568],[4.6229198,51.9338162],[4.6234004,51.9330842],[4.6233716,51.932468],[4.6227764,51.9315648],[4.6225604,51.9313891],[4.6216383,51.930891],[4.6203809,51.9305748],[4.6201691,51.9304929],[4.6200146,51.9303714],[4.6197636,51.9300831],[4.6196772,51.9298826],[4.6197457,51.9296795],[4.6200329,51.9293007],[4.6201324,51.9292039],[4.6204684,51.9289542],[4.620924,51.9283292],[4.6208553,51.927491],[4.6209195,51.9272825],[4.6212006,51.9268998],[4.6213186,51.9267876],[4.6295403,51.9210518],[4.6296282,51.9209999],[4.6303205,51.9206551],[4.6309685,51.9201876],[4.6313164,51.9198159],[4.6313993,51.9197445],[4.6398542,51.9137887],[4.6403683,51.9132092],[4.6404435,51.9125976],[4.6401035,51.9120224],[4.639368,51.9115624],[4.6361404,51.910581],[4.636064,51.910554],[4.6351349,51.910179],[4.6348855,51.9100078],[4.6346215,51.9096895],[4.6345497,51.9095522],[4.6343989,51.9089414],[4.6344316,51.9087248],[4.6346782,51.9082898],[4.6348211,51.9077777],[4.634692,51.9072894],[4.6340805,51.9064831],[4.6340413,51.9064194],[4.6336183,51.9055325],[4.6335766,51.9055013],[4.6334448,51.9053522],[4.6334119,51.9051836],[4.6334825,51.9050194],[4.6336465,51.9048832],[4.6338805,51.9047944],[4.6341511,51.9047656],[4.6344126,51.9047689],[4.6352189,51.9045926],[4.6362884,51.9040806],[4.6365051,51.9040094],[4.6367477,51.9039868],[4.6369887,51.9040154],[4.6378309,51.9042112],[4.6391316,51.9043152],[4.6399303,51.9041816],[4.6406121,51.9038784],[4.6410779,51.9034462],[4.6412849,51.9028961],[4.6413368,51.9024242],[4.641221,51.9018076],[4.6407679,51.9013092],[4.640039,51.9009577],[4.6391471,51.9008077],[4.6382308,51.9008822],[4.637404,51.90118],[4.6363831,51.9018804],[4.6361335,51.9019915],[4.6358318,51.9020288],[4.6355325,51.9019855],[4.6347496,51.901756],[4.6338741,51.9016694],[4.6330365,51.9017788],[4.6323179,51.9020666],[4.6318138,51.9024944],[4.631591,51.9030057],[4.6316811,51.9035446],[4.6321079,51.9041409],[4.6321699,51.9043153],[4.6321172,51.9044908],[4.6319582,51.9046399],[4.6317178,51.9047389],[4.6314342,51.9047721],[4.6309849,51.9047686],[4.6303034,51.904874],[4.6301254,51.9048875],[4.6291043,51.9048863],[4.6280319,51.9050912],[4.6279204,51.9051067],[4.6257185,51.9053015],[4.625637,51.9053058],[4.6222226,51.9053684],[4.6202136,51.9055859],[4.620146,51.9055912],[4.6186136,51.9056666],[4.6185072,51.905667],[4.6179379,51.9056434],[4.617594,51.9055731],[4.6166003,51.9051781],[4.6158274,51.9050564],[4.614837,51.9051315],[4.6139557,51.9054096],[4.6133454,51.9058719],[4.6130904,51.9064407],[4.6133198,51.9072582],[4.6132934,51.9074767],[4.6132042,51.9076427],[4.6129764,51.907848],[4.6126555,51.9080114],[4.6124356,51.9080882],[4.6121863,51.9081137],[4.6115162,51.9081095],[4.6113266,51.9080927],[4.6108644,51.9080122],[4.6107414,51.907983],[4.6095665,51.9076266],[4.6085138,51.9076245],[4.6073586,51.9078108],[4.6070425,51.9078177],[4.6066086,51.9077678],[4.6063474,51.9077036],[4.6058867,51.9075197],[4.6057467,51.9074468],[4.6035974,51.9060065],[4.6028367,51.9056798],[4.6019915,51.9055548],[4.6011307,51.9056285],[4.600372,51.9058908],[4.5998195,51.9063057],[4.5995272,51.906857],[4.5994375,51.9072795],[4.5993467,51.9074455],[4.59916,51.9075773],[4.5985018,51.9078903],[4.5982874,51.9079606],[4.5980475,51.9079833],[4.5972921,51.9079759],[4.5970765,51.9079534],[4.5968815,51.9078925],[4.5958918,51.9074557],[4.5957606,51.9073811],[4.5953923,51.9071134],[4.5952542,51.9069603],[4.5952213,51.906786],[4.5952823,51.9063182],[4.595343,51.9061712]]],[[[4.7716314,52.0012317],[4.7707984,52.0019818],[4.7706486,52.0024779],[4.7707942,52.0029882],[4.7712098,52.0034232],[4.7723104,52.0039102],[4.7731166,52.0040769],[4.7739286,52.0040612],[4.7755125,52.0036115],[4.7758195,52.0035704],[4.7771485,52.0035734],[4.7783475,52.0033905],[4.7790527,52.0030671],[4.779518,52.0026022],[4.7796721,52.0020642],[4.7794875,52.0015121],[4.7790121,52.000983],[4.7789352,52.0008545],[4.7786047,51.9998495],[4.7785945,51.9997111],[4.7786531,51.9995774],[4.7789722,51.9991345],[4.7791838,51.9989658],[4.7808904,51.9981264],[4.7813368,51.9976356],[4.781447,51.9970804],[4.7811423,51.9964259],[4.7806004,51.9959055],[4.7797291,51.9955458],[4.7772654,51.9948625],[4.7761362,51.9948959],[4.7752373,51.9952096],[4.7745053,51.9959271],[4.7743397,51.9964702],[4.7744129,51.9966976],[4.7744247,51.9968205],[4.7743529,51.9973813],[4.774304,51.9975113],[4.7727321,51.9999621],[4.7726971,52.0000088],[4.7716727,52.0011897],[4.7716314,52.0012317]]],[[[4.7660573,51.9748573],[4.766156,51.9757073],[4.76613,51.9758625],[4.7660155,51.9761111],[4.7659467,51.9767726],[4.7662988,51.9773463],[4.7670037,51.9777789],[4.7679918,51.9780054],[4.7695275,51.9780915],[4.7702775,51.9779404],[4.7709753,51.9776049],[4.7717941,51.9770728],[4.7769598,51.9735178],[4.7774499,51.9730091],[4.778523,51.9711915],[4.778679,51.9706178],[4.7785004,51.9700911],[4.7780235,51.9696405],[4.7773138,51.9693283],[4.7763765,51.9691826],[4.775024,51.9690726],[4.7741002,51.9690604],[4.7733131,51.9692294],[4.7726708,51.9695571],[4.772221,51.9700375],[4.7717564,51.9708362],[4.7716688,51.970941],[4.7711717,51.971382],[4.7710212,51.97148],[4.7699566,51.9719914],[4.7697591,51.9720588],[4.7695375,51.9720857],[4.768221,51.9721165],[4.7673627,51.9723658],[4.7663545,51.9730773],[4.7658401,51.9736429],[4.7657481,51.9742405],[4.7660217,51.9747472],[4.7660573,51.9748573]]],[[[4.691238,51.9278608],[4.6917385,51.9282951],[4.6924588,51.9285884],[4.6932874,51.9286994],[4.6945468,51.928546],[4.6947788,51.928541],[4.6953559,51.9285862],[4.6955175,51.9286107],[4.6976541,51.9291011],[4.699796,51.9294076],[4.7017999,51.9295749],[4.7018839,51.929585],[4.7033091,51.9298118],[4.7062151,51.9300164],[4.7071373,51.9298783],[4.7078759,51.9295427],[4.7083507,51.9290573],[4.7084883,51.9284963],[4.7082676,51.9279457],[4.7077223,51.9274893],[4.7068796,51.9271761],[4.7033507,51.9264432],[4.7032669,51.9264525],[4.703008,51.9264223],[4.7027834,51.9263368],[4.7027607,51.9263185],[4.6938079,51.9244525],[4.6928847,51.924394],[4.6920447,51.9245384],[4.6913477,51.9248624],[4.6908896,51.9253213],[4.6907289,51.9258688],[4.6910028,51.9272915],[4.691238,51.9278608]]]]}}]}